,stationid,stationname,latitude,longitude,capacity,neighbourhood,boro,zipcode,elevation_ft
0,455.0,1 Ave & E 44 St,40.75001986,-73.96905301,59.0,Turtle Bay,Manhattan,10017-6927,46.8
1,434.0,9 Ave & W 18 St,40.74317449,-74.00366443,60.0,Chelsea District,Manhattan,10019,15.9
2,491.0,E 24 St & Park Ave S,40.74096374,-73.98602213,,Manhattan Community Board 5,Manhattan,10010,34.87
3,384.0,Fulton St & Waverly Ave,40.68317813,-73.9659641,31.0,,Brooklyn,11238,78.1
4,474.0,5 Ave & E 29 St,40.7451677,-73.98683077,56.0,Midtown South,Manhattan,10035,41.55
5,512.0,W 29 St & 9 Ave,40.7500727,-73.99839279,29.0,Chelsea,Manhattan,10001,27.97
6,498.0,Broadway & W 32 St,40.74854862,-73.98808416,,Chelsea District,Manhattan,10001-2062,43.95
7,405.0,Washington St & Gansevoort St,40.739323,-74.008119,51.0,Manhattan Community Board 2,Manhattan,10014,10.75
8,450.0,W 49 St & 8 Ave,40.76227205,-73.98788205,67.0,Theater District,Manhattan,10019,53.01
9,160.0,E 37 St & Lexington Ave,40.748238,-73.978311,,Murray Hill,Manhattan,10016,62.78
10,291.0,Madison St & Montgomery St,40.713126,-73.984844,20.0,Lower East Side,Manhattan,10002,29.7
11,517.0,Pershing Square South,40.751581,-73.97791,,Murray Hill,Manhattan,10037,61.6
12,290.0,2 Ave & E 58 St,40.76020258,-73.96478473,,Manhattan Community Board 6,Manhattan,10035,60.91
13,361.0,Allen St & Hester St,40.71605866,-73.99190759,79.0,Lower East Side,Manhattan,10002,39.58
14,317.0,E 6 St & Avenue B,40.72453734,-73.98185424,67.0,East Village,Manhattan,10009,17.27
15,488.0,W 39 St & 9 Ave,40.75645824,-73.99372222,44.0,Garment District,Manhattan,10018,32.55
16,285.0,Broadway & E 14 St,40.73454567,-73.99074142,78.0,East Village,Manhattan,10003,40.24
17,466.0,W 25 St & 6 Ave,40.74395411,-73.99144871,35.0,Manhattan Community Board 5,Manhattan,10001,38.14
18,360.0,William St & Pine St,40.70717936,-74.00887308,39.0,Financial District,Manhattan,10045,28.37
19,485.0,W 37 St & 5 Ave,40.75038009,-73.98338988,40.0,Midtown South,Manhattan,10018,72.42
20,449.0,W 52 St & 9 Ave,40.76461837,-73.98789473,,Theater District,Manhattan,10019,56.35
21,164.0,E 47 St & 2 Ave,40.75323098,-73.97032517,77.0,Turtle Bay,Manhattan,10017,36.67
22,522.0,E 51 St & Lexington Ave,40.75714758,-73.97207836,51.0,Turtle Bay,Manhattan,10022,47.66
23,513.0,W 56 St & 10 Ave,40.768254,-73.988639,29.0,Manhattan Community Board 4,Manhattan,10019,51.74
24,382.0,University Pl & E 14 St,40.73492695,-73.99200509,61.0,Union Square,Manhattan,10003,38.92
25,243.0,Fulton St & Rockwell Pl,40.688226,-73.979382,,Fort Greene,,11207,34.05
26,412.0,Forsyth St & Canal St,40.7158155,-73.99422366,29.0,Manhattan Community Board 3,Manhattan,10002,42.52
27,3002.0,South End Ave & Liberty St,40.711512,-74.015756,,Battery Park City,Manhattan,10005,13.77
28,146.0,Hudson St & Reade St,40.71625008,-74.0091059,55.0,Tribeca,Manhattan,10014,19.85
29,438.0,St Marks Pl & 1 Ave,40.72779126,-73.98564945,47.0,East Village,Manhattan,10003,25.69
30,244.0,Willoughby Ave & Hall St,40.69196035,-73.96536851,51.0,,Brooklyn,11205,62.83
31,395.0,Bond St & Schermerhorn St,40.68807003,-73.98410637,,Boerum Hill,,11217,41.14
32,509.0,9 Ave & W 22 St,40.7454973,-74.00197139,61.0,Chelsea District,Manhattan,10019,16.4
33,150.0,E 2 St & Avenue C,40.7208736,-73.98085795,56.0,East Village,Manhattan,10002-1013,16.6
34,428.0,E 3 St & 1 Ave,40.72467721,-73.98783413,41.0,East Village,Manhattan,10009,32.76
35,422.0,W 59 St & 10 Ave,40.770513,-73.988038,79.0,Manhattan Community Board 4,Manhattan,100,69.29
36,386.0,Centre St & Worth St,40.71494807,-74.00234482,82.0,Manhattan Community Board 1,Manhattan,10278,17.74
37,327.0,Vesey Pl & River Terrace,40.7153379,-74.01658354,39.0,Battery Park City,Manhattan,10285,11.69
38,536.0,1 Ave & E 30 St,40.74144387,-73.97536082,29.0,Kips Bay,Manhattan,10016,21.08
39,282.0,Kent Ave & S 11 St,40.70827295,-73.96834101,27.0,,Brooklyn,11211,15.63
40,312.0,Allen St & E Houston St,40.722055,-73.989111,,Lower East Side,Manhattan,10002,36.94
41,326.0,E 11 St & 1 Ave,40.72953837,-73.98426726,41.0,East Village,Manhattan,10009,23.61
42,293.0,Lafayette St & E 8 St,40.73028666,-73.9907647,91.0,East Village,Manhattan,10003,40.24
43,168.0,W 18 St & 6 Ave,40.73971301,-73.99456405,47.0,Manhattan Community Board 5,Manhattan,10011,33.25
44,495.0,W 47 St & 10 Ave,40.76269882,-73.99301222,39.0,Theater District,Manhattan,10036,30.49
45,128.0,MacDougal St & Prince St,40.72710258,-74.00297088,56.0,SoHo,Manhattan,10012,24.15
46,514.0,12 Ave & W 40 St,40.76087502,-74.00277668,51.0,Hudson Yards,Manhattan,100036,7.48
47,489.0,10 Ave & W 28 St,40.75066386,-74.00176802,49.0,Chelsea District,Manhattan,10001,14.39
48,364.0,Lafayette Ave & Classon Ave,40.68900443,-73.96023854,27.0,,Brooklyn,11221,69.21
49,470.0,W 20 St & 8 Ave,40.74345335,-74.00004031,84.0,Chelsea District,Manhattan,10011,20.33
50,403.0,E 2 St & 2 Ave,40.72502876,-73.99069656,58.0,East Village,Manhattan,1002,39.89
51,481.0,S 3 St & Bedford Ave,40.71260486,-73.96264403,25.0,,Brooklyn,11211,51.62
52,334.0,W 20 St & 7 Ave,40.74238787,-73.99726235,44.0,Chelsea District,Manhattan,10011,26.04
53,521.0,8 Ave & W 31 St,40.75044999,-73.99481051,18.0,Chelsea District,Manhattan,10119,33.94
54,480.0,W 53 St & 10 Ave,40.76669671,-73.99061728,29.0,Theater District,Manhattan,10019,27.04
55,368.0,Carmine St & 6 Ave,40.73038599,-74.00214988,47.0,West Village,Manhattan,10014,16.9
56,82.0,St James Pl & Pearl St,40.71117416,-74.00016545,27.0,Two Bridges,Manhattan,10038,15.64
57,524.0,W 43 St & 6 Ave,40.75527307,-73.98316936,,Manhattan Community Board 5,Manhattan,,63.81
58,212.0,W 16 St & The High Line,40.74334935,-74.00681753,60.0,Chelsea District,Manhattan,10011,11.37
59,518.0,E 39 St & 2 Ave,40.74780373,-73.9734419,52.0,Murray Hill,Manhattan,10016,30.84
60,496.0,E 16 St & 5 Ave,40.73726186,-73.99238967,65.0,Union Square,Manhattan,10003,38.19
61,402.0,Broadway & E 22 St,40.7403432,-73.98955109,,Manhattan Community Board 5,Manhattan,10010,39.94
62,151.0,Cleveland Pl & Spring St,40.7218158,-73.99720307,33.0,Manhattan Community Board 2,Manhattan,10012,33.36
63,406.0,Hicks St & Montague St,40.69512845,-73.99595065,20.0,Brooklyn Heights,,11201,73.93
64,499.0,Broadway & W 60 St,40.76915505,-73.98191841,,Manhattan Community Board 7,Manhattan,10034,80.19
65,284.0,Greenwich Ave & 8 Ave,40.73901691,-74.00263761,51.0,West Village,Manhattan,10014,23.01
66,157.0,Henry St & Atlantic Ave,40.69089272,-73.99612349,23.0,Brooklyn Heights,,11231,50.25
67,362.0,Broadway & W 37 St,40.75172632,-73.98753523,57.0,Garment District,Manhattan,10019,50.74
68,497.0,E 17 St & Broadway,40.73704984,-73.99009296,66.0,Union Square,Manhattan,10010,40.61
69,2004.0,6 Ave & Broome St,40.724399,-74.004704,48.0,Hudson Square,Manhattan,10014-3621,16.06
70,2021.0,W 45 St & 8 Ave,40.75929124,-73.98859651,65.0,Hell's Kitchen,Manhattan,10036,42.53
71,335.0,Washington Pl & Broadway,40.72903917,-73.99404649,27.0,West Village,Manhattan,10014,39.83
72,348.0,W Broadway & Spring St,40.72490985,-74.00154702,46.0,Manhattan Community Board 2,Manhattan,10012,16.39
73,72.0,W 52 St & 11 Ave,40.76727216,-73.99392888,55.0,Theater District,Manhattan,10019,23.34
74,531.0,Forsyth St & Broome St,40.71893904,-73.99266288,66.0,Lower East Side,Manhattan,10002,39.84
75,236.0,St Marks Pl & 2 Ave,40.7284186,-73.98713956,51.0,East Village,Manhattan,10003,30.22
76,359.0,E 47 St & Park Ave,40.75510267,-73.97498696,78.0,Manhattan Community Board 5,Manhattan,10037,58.2
77,352.0,W 56 St & 6 Ave,40.76340613,-73.97722479,36.0,Manhattan Community Board 5,Manhattan,10019,57.4
78,478.0,11 Ave & W 41 St,40.76030096,-73.99884222,37.0,Hell's Kitchen,Manhattan,10018,16.37
79,268.0,Howard St & Centre St,40.71910537,-73.99973337,,Manhattan Community Board 2,Manhattan,10013,16.05
80,225.0,W 14 St & The High Line,40.74195138,-74.00803013,,Meatpacking District,Manhattan,100014,9.97
81,127.0,Barrow St & Hudson St,40.73172428,-74.00674436,31.0,West Village,Manhattan,10014,17.22
82,464.0,E 56 St & 3 Ave,40.75934501,-73.96759673,53.0,Manhattan Community Board 6,Manhattan,10022,38.53
83,416.0,Cumberland St & Lafayette Ave,40.68753406,-73.97265183,31.0,Fort Greene,,11238,73.35
84,161.0,LaGuardia Pl & W 3 St,40.72917025,-73.99810231,35.0,West Village,Manhattan,10014,29.38
85,281.0,Grand Army Plaza & Central Park S,40.7643971,-73.97371465,66.0,Manhattan Community Board 5,Manhattan,10153,50.45
86,467.0,Dean St & 4 Ave,40.68312489,-73.97895137,,Park Slope,,11213,37.19
87,120.0,Lexington Ave & Classon Ave,40.68676793,-73.95928168,19.0,,Brooklyn,11221,70.27
88,263.0,Elizabeth St & Hester St,40.71729,-73.996375,,Manhattan Community Board 2,Manhattan,10013,38.49
89,472.0,E 32 St & Park Ave,40.7457121,-73.98194829,55.0,Midtown South,Manhattan,10016,45.1
90,320.0,Leonard St & Church St,40.717571,-74.005549,54.0,Tribeca,Manhattan,10013,23.31
91,433.0,E 13 St & Avenue A,40.72955361,-73.98057249,62.0,East Village,Manhattan,10009,14.99
92,442.0,W 27 St & 7 Ave,40.746647,-73.993915,51.0,Chelsea District,Manhattan,10001,31.94
93,482.0,W 15 St & 7 Ave,40.73935542,-73.99931783,40.0,Chelsea District,Manhattan,10011,26.05
94,254.0,W 11 St & 6 Ave,40.73532427,-73.99800419,47.0,Washington Square Village,Manhattan,10014,24.51
95,439.0,E 4 St & 2 Ave,40.7262807,-73.98978041,43.0,East Village,Manhattan,10009,37.6
96,503.0,E 20 St & Park Ave,40.73827428,-73.98751968,31.0,Gramercy,Manhattan,10003,36.25
97,116.0,W 17 St & 8 Ave,40.74177603,-74.00149746,50.0,Chelsea,Manhattan,10011,20.55
98,380.0,W 4 St & 7 Ave S,40.73401143,-74.00293877,42.0,West Village,Manhattan,10014,23.9
99,147.0,Greenwich St & Warren St,40.71542197,-74.01121978,,Tribeca,Manhattan,10014,12.14
100,369.0,Washington Pl & 6 Ave,40.73224119,-74.00026394,76.0,Washington Square Village,Manhattan,10011,18.89
101,251.0,Mott St & Prince St,40.72317958,-73.99480012,27.0,Little Italy,Manhattan,10012,41.21
102,350.0,Clinton St & Grand St,40.71559509,-73.9870295,47.0,Lower East Side,Manhattan,10002,32.02
103,325.0,E 19 St & 3 Ave,40.73624527,-73.98473765,35.0,Manhattan Community Board 6,Manhattan,10003,28.07
104,446.0,W 24 St & 7 Ave,40.74487634,-73.99529885,79.0,Chelsea District,Manhattan,10011,28.67
105,529.0,W 42 St & 8 Ave,40.7575699,-73.99098507,41.0,Theater District,Manhattan,100036,38.92
106,504.0,1 Ave & E 15 St,40.73221853,-73.98165557,,Manhattan Community Board 6,Manhattan,10009,19.31
107,492.0,W 33 St & 7 Ave,40.75019995,-73.99093085,,Chelsea District,Manhattan,10119,39.21
108,389.0,Broadway & Berry St,40.71044554,-73.96525063,27.0,,Brooklyn,11207,38.49
109,401.0,Allen St & Rivington St,40.72019576,-73.98997825,42.0,Lower East Side,Manhattan,10002,38.2
110,310.0,State St & Smith St,40.68926942,-73.98912867,66.0,Boerum Hill,,11201,37.03
111,323.0,Lawrence St & Willoughby St,40.69236178,-73.98631746,39.0,Downtown Brooklyn,,11201,46.07
112,404.0,9 Ave & W 14 St,40.7405826,-74.00550867,,Manhattan Community Board 2,Manhattan,10014,16.14
113,376.0,John St & William St,40.70862144,-74.00722156,19.0,Financial District,Manhattan,10038,26.63
114,318.0,E 43 St & Vanderbilt Ave,40.75320159,-73.9779874,,Manhattan Community Board 5,Manhattan,10037,57.3
115,304.0,Broadway & Battery Pl,40.70463334,-74.01361706,48.0,Financial District,Manhattan,10275,18.04
116,453.0,W 22 St & 8 Ave,40.74475148,-73.99915362,66.0,Chelsea District,Manhattan,10011,20.94
117,483.0,E 12 St & 3 Ave,40.73223272,-73.98889957,48.0,East Village,Manhattan,10009,38.83
118,461.0,E 20 St & 2 Ave,40.73587678,-73.98205027,56.0,Manhattan Community Board 6,Manhattan,10010,22.01
119,2012.0,E 27 St & 1 Ave,40.739445,-73.976806,41.0,Kips Bay,Manhattan,10016,20.54
120,537.0,Lexington Ave & E 24 St,40.74025878,-73.98409214,53.0,Kips Bay,Manhattan,10037,29.71
121,2010.0,Grand St & Greene St,40.72165481,-74.00234737,65.0,Manhattan Community Board 2,Manhattan,10013,14.19
122,308.0,St James Pl & Oliver St,40.71307916,-73.99851193,48.0,Manhattan Community Board 3,Manhattan,10038,28.78
123,296.0,Division St & Bowery,40.71413089,-73.9970468,49.0,Manhattan Community Board 3,Manhattan,10002,36.6
124,297.0,E 15 St & 3 Ave,40.734232,-73.986923,77.0,Union Square,Manhattan,10003,34.28
125,331.0,Pike St & Monroe St,40.71173107,-73.99193043,27.0,Two Bridges,Manhattan,10002,22.27
126,233.0,Joralemon St & Adams St,40.69246277,-73.98963911,,,Brooklyn,11231,58.22
127,502.0,Henry St & Grand St,40.714215,-73.981346,36.0,Lower East Side,Manhattan,10002,30.77
128,342.0,Columbia St & Rivington St,40.71739973,-73.98016555,29.0,Lower East Side,Manhattan,10002,14.83
129,484.0,W 44 St & 5 Ave,40.75500254,-73.98014437,46.0,Manhattan Community Board 5,Manhattan,10036,64.35
130,445.0,E 10 St & Avenue A,40.72740794,-73.98142006,107.0,East Village,Manhattan,10009,15.86
131,295.0,Pike St & E Broadway,40.71406667,-73.99293911,24.0,Manhattan Community Board 3,Manhattan,10002,38.82
132,540.0,Lexington Ave & E 26 St,40.74147286,-73.98320928,55.0,Kips Bay,Manhattan,10037,32.97
133,264.0,Maiden Ln & Pearl St,40.70706456,-74.00731853,29.0,Financial District,Manhattan,10038,9.15
134,217.0,Old Fulton St,40.70277159,-73.99383605,39.0,,Brooklyn,11201-1832,13.06
135,396.0,Lefferts Pl & Franklin Ave,40.68034242,-73.95576894,25.0,,Brooklyn,11216,79.4
136,153.0,E 40 St & 5 Ave,40.75206231,-73.9816324,63.0,Midtown South,Manhattan,10016,73.94
137,347.0,W Houston St & Hudson St,40.72873888,-74.00748842,,Hudson Square,Manhattan,10014,14.67
138,265.0,Stanton St & Chrystie St,40.72229346,-73.99147535,35.0,Lower East Side,Manhattan,10012-3332,40.89
139,515.0,W 43 St & 10 Ave,40.76009437,-73.99461843,79.0,Manhattan Community Board 4,Manhattan,10036,25.53
140,274.0,Lafayette Ave & Fort Greene Pl,40.68691865,-73.976682,,Fort Greene,,11221,45.06
141,487.0,E 20 St & FDR Drive,40.73314259,-73.97573881,,Manhattan Community Board 6,Manhattan,10009:10010,4.15
142,174.0,E 25 St & 1 Ave,40.7381765,-73.97738662,35.0,Kips Bay,Manhattan,10010,14.39
143,247.0,Perry St & Bleecker St,40.73535398,-74.00483091,79.0,West Village,Manhattan,10014,24.79
144,462.0,W 22 St & 10 Ave,40.74691959,-74.00451887,77.0,Chelsea District,Manhattan,10011,9.83
145,324.0,DeKalb Ave & Hudson Ave,40.689888,-73.981013,74.0,Downtown Brooklyn,,11221,30.39
146,523.0,W 38 St & 8 Ave,40.75466591,-73.99138152,,Garment District,Manhattan,10018,37.29
147,257.0,Lispenard St & Broadway,40.71939226,-74.00247214,79.0,Tribeca,Manhattan,10013,12.69
148,407.0,Henry St & Poplar St,40.700469,-73.991454,,,Brooklyn,11201,50.92
149,511.0,E 14 St & Avenue B,40.72938685,-73.97772429,31.0,Manhattan Community Board 6,Manhattan,10009:10010,9.95
150,528.0,2 Ave & E 31 St,40.74290902,-73.97706058,39.0,Kips Bay,Manhattan,10016,29.13
151,417.0,Barclay St & Church St,40.71291224,-74.01020234,25.0,Tribeca,Manhattan,10007,20.69
152,426.0,West St & Chambers St,40.71754834,-74.01322069,81.0,Battery Park City,Manhattan,10282,8.51
153,444.0,Broadway & W 24 St,40.7423543,-73.98915076,,Manhattan Community Board 5,Manhattan,10001-7604,39.95
154,375.0,Mercer St & Bleecker St,40.72679454,-73.99695094,45.0,West Village,Manhattan,10014,35.58
155,463.0,9 Ave & W 16 St,40.74206539,-74.00443172,,Chelsea District,Manhattan,10019,16.21
156,329.0,Greenwich St & N Moore St,40.72043411,-74.01020609,,Tribeca,Manhattan,,12.94
157,458.0,11 Ave & W 27 St,40.751396,-74.005226,31.0,Manhattan Community Board 4,Manhattan,10001,7.39
158,336.0,Sullivan St & Washington Sq,40.73047747,-73.99906065,57.0,West Village,Manhattan,10014,23.66
159,346.0,Bank St & Hudson St,40.73652889,-74.00618026,27.0,West Village,Manhattan,10014,19.8
160,250.0,Lafayette St & Jersey St,40.72456089,-73.99565293,40.0,Manhattan Community Board 2,Manhattan,10012-3332,40.83
161,83.0,Atlantic Ave & Fort Greene Pl,40.68382604,-73.97632328,62.0,,Brooklyn,11208,46.61
162,260.0,Broad St & Bridge St,40.70365182,-74.01167797,33.0,Financial District,Manhattan,10004,5.76
163,252.0,MacDougal St & Washington Sq,40.73226398,-73.99852205,33.0,Washington Square Village,Manhattan,10011-6832,20.51
164,475.0,E 16 St & Irving Pl,40.73524276,-73.98758561,79.0,Union Square,Manhattan,10003,36.09
165,345.0,W 13 St & 6 Ave,40.73649403,-73.99704374,,West Village,Manhattan,10011,27.15
166,383.0,Greenwich Ave & Charles St,40.735238,-74.000271,39.0,West Village,Manhattan,10014,22
167,311.0,Norfolk St & Broome St,40.7172274,-73.98802084,59.0,Lower East Side,Manhattan,10002,33.99
168,294.0,Washington Square E,40.73049393,-73.9957214,64.0,West Village,Manhattan,10014,31.4
169,399.0,Lafayette Ave & St James Pl,40.68851534,-73.9647628,39.0,,Brooklyn,11205,71.85
170,167.0,E 39 St & 3 Ave,40.7489006,-73.97604882,,Murray Hill,Manhattan,10016,40.49
171,2017.0,E 43 St & 2 Ave,40.75022392,-73.97121414,,Tudor City,Manhattan,10017,55.68
172,459.0,W 20 St & 11 Ave,40.746745,-74.007756,,Chelsea District,Manhattan,10011,6.84
173,351.0,Front St & Maiden Ln,40.70530954,-74.00612572,,Financial District,Manhattan,10045,5.3
174,271.0,Ashland Pl & Hanson Pl,40.68528172,-73.97805813,,Fort Greene,,11217,44.72
175,366.0,Clinton Ave & Myrtle Ave,40.693261,-73.968896,33.0,,Brooklyn,11205,59.95
176,316.0,Fulton St & William St,40.70955958,-74.00653609,43.0,Financial District,Manhattan,10279,29.41
177,388.0,W 26 St & 10 Ave,40.74971775,-74.00295035,35.0,Chelsea District,Manhattan,10001,12.3
178,365.0,Fulton St & Grand Ave,40.68223166,-73.9614583,,,Brooklyn,11207,71.05
179,229.0,Great Jones St,40.72743423,-73.99379025,23.0,NoHo,Manhattan,10012,41.56
180,532.0,S 5 Pl & S 4 St,40.710451,-73.960876,,,Brooklyn,11249,49.1
181,303.0,Mercer St & Spring St,40.72362738,-73.99949601,67.0,Manhattan Community Board 2,Manhattan,10012,26.37
182,519.0,Pershing Square North,40.751873,-73.977706,,Murray Hill,Manhattan,10037,58.36
183,358.0,Christopher St & Greenwich St,40.73291553,-74.00711384,50.0,West Village,Manhattan,10014,18.11
184,305.0,E 58 St & 3 Ave,40.76095756,-73.96724467,33.0,Manhattan Community Board 6,Manhattan,10022,49.45
185,476.0,E 31 St & 3 Ave,40.74394314,-73.97966069,65.0,Kips Bay,Manhattan,10016,29.78
186,410.0,Suffolk St & Stanton St,40.72066442,-73.98517977,79.0,Lower East Side,Manhattan,10002,26.51
187,391.0,Clark St & Henry St,40.69760127,-73.99344559,43.0,Brooklyn Heights,,11201-1832,78.17
188,279.0,Peck Slip & Front St,40.707873,-74.00167,,Financial District,Manhattan,10038,5.11
189,486.0,Broadway & W 29 St,40.7462009,-73.98855723,41.0,Midtown South,Manhattan,10019,42.55
190,430.0,York St & Jay St,40.7014851,-73.98656928,,,Brooklyn,11201,41.2
191,437.0,Macon St & Nostrand Ave,40.68098339,-73.95004798,24.0,,Brooklyn,11233,55.36
192,526.0,E 33 St & 5 Ave,40.74765947,-73.98490707,40.0,Midtown South,Manhattan,10016,47.45
193,344.0,Monroe St & Bedford Ave,40.6851443,-73.95380904,23.0,,Brooklyn,11221,56.06
194,218.0,Gallatin Pl & Livingston St,40.69028437,-73.98707105,,Downtown Brooklyn,,11201,44.91
195,228.0,E 48 St & 3 Ave,40.7546011,-73.97187886,55.0,Turtle Bay,Manhattan,10017,38.29
196,280.0,E 10 St & 5 Ave,40.73331967,-73.99510132,,Washington Square Village,Manhattan,10009,29.69
197,223.0,W 13 St & 7 Ave,40.73781509,-73.99994661,33.0,West Village,Manhattan,10011,26.74
198,373.0,Willoughby Ave & Walworth St,40.69331716,-73.95381995,19.0,,Brooklyn,11205,35.65
199,432.0,E 7 St & Avenue A,40.72621788,-73.98379855,31.0,East Village,Manhattan,10009,20.81
200,301.0,E 2 St & Avenue B,40.72217444,-73.98368779,58.0,East Village,Manhattan,10002-1013,22.46
201,237.0,E 11 St & 2 Ave,40.73047309,-73.98672378,,East Village,Manhattan,10003,31.27
202,507.0,E 25 St & 2 Ave,40.73912601,-73.97973776,79.0,Kips Bay,Manhattan,10010,29.11
203,249.0,Harrison St & Hudson St,40.71870987,-74.0090009,27.0,Tribeca,Manhattan,10013,17.08
204,353.0,S Portland Ave & Hanson Pl,40.68539567,-73.97431458,27.0,Fort Greene,,11217,65.02
205,435.0,W 21 St & 6 Ave,40.74173969,-73.99415556,50.0,Chelsea District,Manhattan,10011,32.38
206,307.0,Canal St & Rutgers St,40.71427487,-73.98990025,31.0,Lower East Side,Manhattan,10002,31.16
207,377.0,6 Ave & Canal St,40.72243797,-74.00566443,49.0,Hudson Square,Manhattan,10005,8.69
208,525.0,W 34 St & 11 Ave,40.75594159,-74.0021163,56.0,Manhattan Community Board 4,Manhattan,10199,32.43
209,415.0,Pearl St & Hanover Square,40.7047177,-74.00926027,46.0,Financial District,Manhattan,10038,11.66
210,266.0,Avenue D & E 8 St,40.72368361,-73.97574813,,East Village,Manhattan,10009:10010,10.36
211,313.0,Washington Ave & Park Ave,40.69610226,-73.96751037,55.0,,Brooklyn,11238,30.53
212,456.0,E 53 St & Madison Ave,40.7597108,-73.97402311,51.0,Turtle Bay,Manhattan,10055,57.67
213,232.0,Cadman Plaza E & Tillary St,40.69597683,-73.99014892,52.0,Downtown Brooklyn,,11201,78.98
214,339.0,Avenue D & E 12 St,40.72580614,-73.97422494,41.0,East Village,Manhattan,10009:10010,6.62
215,494.0,W 26 St & 8 Ave,40.74734825,-73.99723551,66.0,,Manhattan,10001,25.14
216,300.0,Shevchenko Pl & E 7 St,40.728145,-73.990214,,East Village,Manhattan,10003,39.34
217,258.0,DeKalb Ave & Vanderbilt Ave,40.68940747,-73.96885458,23.0,Fort Greene,,11221,82.96
218,394.0,E 9 St & Avenue C,40.72521311,-73.97768752,34.0,East Village,Manhattan,10009,8.76
219,387.0,Centre St & Chambers St,40.71273266,-74.0046073,39.0,Manhattan Community Board 1,Manhattan,10000,37.56
220,441.0,E 52 St & 2 Ave,40.756014,-73.967416,,Turtle Bay,Manhattan,10022,30.22
221,527.0,E 33 St & 2 Ave,40.744023,-73.976056,,Kips Bay,Manhattan,10016,19.58
222,392.0,Jay St & Tech Pl,40.695065,-73.987167,35.0,Downtown Brooklyn,,11201-1832,46.98
223,2006.0,Central Park S & 6 Ave,40.76590936,-73.97634151,49.0,,Manhattan,10106,52.8
224,490.0,8 Ave & W 33 St,40.751551,-73.993934,66.0,Garment District,Manhattan,10018-4527,35.93
225,340.0,Madison St & Clinton St,40.71269042,-73.98776323,27.0,Two Bridges,Manhattan,10002,19.49
226,411.0,E 6 St & Avenue D,40.72228087,-73.97668709,31.0,East Village,Manhattan,10009:10010,10.46
227,479.0,9 Ave & W 45 St,40.76019252,-73.9912551,31.0,Manhattan Community Board 4,Manhattan,10019,37.03
228,302.0,Avenue D & E 3 St,40.72082834,-73.97793172,37.0,East Village,Manhattan,10009,11.71
229,245.0,Myrtle Ave & St Edwards St,40.69327018,-73.97703874,56.0,Fort Greene,,11237,40.33
230,385.0,E 55 St & 2 Ave,40.75797322,-73.96603308,29.0,Manhattan Community Board 6,Manhattan,10022,43.4
231,238.0,Bank St & Washington St,40.7361967,-74.00859207,31.0,West Village,Manhattan,10014,11.95
232,545.0,E 23 St & 1 Ave,40.736502,-73.97809472,27.0,Stuy Town,Manhattan,10010,10.54
233,355.0,Bayard St & Baxter St,40.71602118,-73.99974372,43.0,Chinatown,Manhattan,10013,15.27
234,341.0,Stanton St & Mangin St,40.71782143,-73.97628939,19.0,Lower East Side,Manhattan,10002,5.69
235,427.0,Bus Slip & State St,40.701907,-74.013942,47.0,Financial District,Manhattan,10004,8.33
236,473.0,Rivington St & Chrystie St,40.72110063,-73.9919254,64.0,Lower East Side,Manhattan,10002,40.86
237,239.0,Willoughby St & Fleet St,40.69196566,-73.9813018,62.0,Downtown Brooklyn,,11201,43.36
238,423.0,W 54 St & 9 Ave,40.76584941,-73.98690506,44.0,Manhattan Community Board 4,Manhattan,10019,64.59
239,471.0,Grand St & Havemeyer St,40.71286844,-73.95698119,31.0,,Brooklyn,11211,27.32
240,419.0,Carlton Ave & Park Ave,40.69580705,-73.97355569,23.0,Fort Greene,,11205,39.18
241,440.0,E 45 St & 3 Ave,40.75255434,-73.97282625,32.0,Turtle Bay,Manhattan,10017,42.06
242,119.0,Park Ave & St Edwards St,40.69608941,-73.97803415,53.0,Fort Greene,,11251,18.33
243,469.0,Broadway & W 53 St,40.76344058,-73.98268129,57.0,Theater District,Manhattan,10019,70.15
244,546.0,E 30 St & Park Ave S,40.74444921,-73.98303529,19.0,Midtown South,Manhattan,10016,40.55
245,356.0,Bialystoker Pl & Delancey St,40.71622644,-73.98261206,23.0,Lower East Side,Manhattan,10002,21.1
246,2008.0,Little West St & 1 Pl,40.70569254,-74.01677685,35.0,Battery Park City,Manhattan,10280,7.89
247,414.0,Pearl St & Anchorage Pl,40.70281858,-73.98765762,,,Brooklyn,11201-1832,16.7
248,262.0,Washington Park,40.69178232,-73.97372989,24.0,Fort Greene,,11205,66.93
249,393.0,E 5 St & Avenue C,40.72299208,-73.97995466,37.0,East Village,Manhattan,10009,15.06
250,454.0,E 51 St & 1 Ave,40.75455731,-73.96592976,35.0,Turtle Bay,Manhattan,10022,37.97
251,534.0,Water - Whitehall Plaza,40.70255065,-74.0127234,,Financial District,Manhattan,10004,6.18
252,379.0,W 31 St & 7 Ave,40.749156,-73.9916,55.0,Chelsea District,Manhattan,10001,37.09
253,152.0,Warren St & Church St,40.71473993,-74.00910627,,Tribeca,Manhattan,10007,25.78
254,457.0,Broadway & W 58 St,40.76695317,-73.98169333,79.0,Manhattan Community Board 5,Manhattan,10019,77.5
255,332.0,Cherry St,40.71219906,-73.97948148,36.0,Lower East Side,Manhattan,10002,15.01
256,2009.0,Catherine St & Monroe St,40.71117444,-73.99682619,35.0,Two Bridges,Manhattan,10038,12.88
257,306.0,Cliff St & Fulton St,40.70823502,-74.00530063,65.0,Financial District,Manhattan,10038,16.47
258,314.0,Cadman Plaza West & Montague St,40.69383,-73.990539,,,Brooklyn,11201,71.55
259,298.0,3 Ave & Schermerhorn St,40.68683208,-73.9796772,35.0,Downtown Brooklyn,,11227,38.95
260,363.0,West Thames St,40.70834698,-74.01713445,73.0,Battery Park City,Manhattan,10280,13.78
261,276.0,Duane St & Greenwich St,40.71748752,-74.0104554,,Tribeca,Manhattan,10007,15.41
262,216.0,Columbia Heights & Cranberry St,40.70037867,-73.99548059,37.0,Brooklyn Heights,,11201-1832,35.34
263,408.0,Market St & Cherry St,40.71076228,-73.99400398,45.0,Two Bridges,Manhattan,10002,13.23
264,2003.0,1 Ave & E 18 St,40.73416059,-73.98024289,54.0,Manhattan Community Board 6,Manhattan,10009,16.76
265,357.0,E 11 St & Broadway,40.73261787,-73.99158043,,Washington Square Village,Manhattan,10003,39.5
266,278.0,Concord St & Bridge St,40.69766564,-73.98476437,19.0,,Brooklyn,11201,46.38
267,79.0,Franklin St & W Broadway,40.71911552,-74.00666661,33.0,Tribeca,Manhattan,10005,9.63
268,398.0,Atlantic Ave & Furman St,40.69165183,-73.9999786,37.0,,Brooklyn,11231,21.55
269,505.0,6 Ave & W 33 St,40.74901271,-73.98848395,52.0,Manhattan Community Board 5,Manhattan,10019,43.19
270,530.0,11 Ave & W 59 St,40.771522,-73.990541,24.0,Manhattan Community Board 4,Manhattan,10018,18.72
271,267.0,Broadway & W 36 St,40.75097711,-73.98765428,78.0,Garment District,Manhattan,10019,47.6
272,2000.0,Front St & Washington St,40.70255088,-73.98940236,57.0,,Brooklyn,11201-1832,17.76
273,315.0,South St & Gouverneur Ln,40.70355377,-74.00670227,29.0,Financial District,Manhattan,10041,6.6
274,349.0,Rivington St & Ridge St,40.71850211,-73.98329859,61.0,Lower East Side,Manhattan,10002,22.27
275,144.0,Nassau St & Navy St,40.69839895,-73.98068914,58.0,,Brooklyn,11251,13.78
276,143.0,Clinton St & Joralemon St,40.69239502,-73.99337909,50.0,Brooklyn Heights,,11231,68.86
277,400.0,Pitt St & Stanton St,40.71926081,-73.98178024,15.0,Lower East Side,Manhattan,10002-1013,18.5
278,270.0,Adelphi St & Myrtle Ave,40.69308257,-73.97178913,28.0,Fort Greene,,11238,59.24
279,538.0,E 48 St & Madison Ave,40.75666,-73.976684,,Manhattan Community Board 5,Manhattan,10017,63.68
280,520.0,W 52 St & 5 Ave,40.75992262,-73.97648516,,Manhattan Community Board 5,Manhattan,10019,69.64
281,354.0,Emerson Pl & Myrtle Ave,40.69363137,-73.96223558,63.0,,Brooklyn,11205,44.25
282,372.0,Franklin Ave & Myrtle Ave,40.694528,-73.958089,27.0,,Brooklyn,11225,44.09
283,409.0,DeKalb Ave & Skillman St,40.6906495,-73.95643107,,Fort Greene,,11205,48.9
284,195.0,Liberty St & Broadway,40.70905623,-74.01043382,,Financial District,Manhattan,10005,34.7
285,2023.0,E 55 St & Lexington Ave,40.75968085,-73.97031366,,Manhattan Community Board 5,Manhattan,10022,43.76
286,420.0,Clermont Ave & Lafayette Ave,40.68764484,-73.96968902,51.0,,Brooklyn,11238,91.98
287,367.0,E 53 St & Lexington Ave,40.75828065,-73.97069431,43.0,Turtle Bay,Manhattan,10152,41.97
288,261.0,Johnson St & Gold St,40.69474881,-73.98362464,41.0,,Brooklyn,11201,29.88
289,2022.0,E 59 St & Sutton Pl,40.75849116,-73.95920622,,Midtown East,Manhattan,10022,41.85
290,465.0,Broadway & W 41 St,40.75513557,-73.98658032,39.0,Theater District,Manhattan,10019,56.35
291,328.0,Watts St & Greenwich St,40.72405549,-74.00965965,35.0,Tribeca,Manhattan,10005,11.47
292,539.0,Metropolitan Ave & Bedford Ave,40.71534825,-73.96024116,31.0,,Brooklyn,11249,35.19
293,397.0,Fulton St & Clermont Ave,40.68415748,-73.96922273,75.0,Fort Greene,,11207,73.78
294,321.0,Cadman Plaza E & Red Cross Pl,40.69991755,-73.98971773,39.0,,Brooklyn,11201,67.32
295,468.0,Broadway & W 55 St,40.7652654,-73.98192338,,Manhattan Community Board 5,Manhattan,10019,76.71
296,460.0,S 4 St & Wythe Ave,40.71285887,-73.96590294,25.0,,Brooklyn,11211,38.28
297,436.0,Hancock St & Bedford Ave,40.68216564,-73.95399026,27.0,,Brooklyn,11233,65.12
298,448.0,W 37 St & 10 Ave,40.75660359,-73.9979009,27.0,Manhattan Community Board 4,Manhattan,10018,38.08
299,241.0,DeKalb Ave & S Portland Ave,40.68981035,-73.97493121,23.0,Fort Greene,,11221,55.7
300,493.0,W 45 St & 6 Ave,40.7568001,-73.98291153,,Theater District,Manhattan,10036,59.77
301,516.0,E 47 St & 1 Ave,40.75206862,-73.96784384,48.0,Turtle Bay,Manhattan,10017-6927,31.37
302,275.0,Washington Ave & Greene Ave,40.68650065,-73.96563307,19.0,,Brooklyn,11238,76.74
303,309.0,Murray St & West St,40.7149787,-74.013012,41.0,Tribeca,Manhattan,10282,6.04
304,390.0,Duffield St & Willoughby St,40.69221589,-73.9842844,48.0,Downtown Brooklyn,,11201,43.51
305,259.0,South St & Whitehall St,40.70122128,-74.01234218,39.0,Financial District,Manhattan,10004,7.84
306,477.0,W 41 St & 8 Ave,40.75640548,-73.9900262,71.0,Theater District,Manhattan,10036,42.46
307,2002.0,Wythe Ave & Metropolitan Ave,40.716887,-73.963198,57.0,,Brooklyn,11211,26.09
308,330.0,Reade St & Broadway,40.71450451,-74.00562789,42.0,Manhattan Community Board 1,Manhattan,10013,31.54
309,508.0,W 46 St & 11 Ave,40.76341379,-73.99667444,25.0,Manhattan Community Board 4,Manhattan,10036,16.5
310,500.0,Broadway & W 51 St,40.76228826,-73.98336183,52.0,Theater District,Manhattan,10019,62.21
311,322.0,Clinton St & Tillary St,40.696192,-73.991218,33.0,,Brooklyn,11231,83.69
312,447.0,8 Ave & W 52 St,40.76370739,-73.9851615,31.0,Manhattan Community Board 4,Manhattan,10019,63.8
313,224.0,Spruce St & Nassau St,40.71146364,-74.00552427,34.0,Financial District,Manhattan,10038,32.31
314,173.0,Broadway & W 49 St,40.76064679,-73.98442659,,Theater District,Manhattan,10019,54.58
315,533.0,Broadway & W 39 St,40.75299641,-73.98721619,,Garment District,Manhattan,10019,54.39
316,501.0,FDR Drive & E 35 St,40.744219,-73.97121214,83.0,Murray Hill,Manhattan,10017-6927,1.03
317,443.0,Bedford Ave & S 9th St,40.70853074,-73.96408963,,,Brooklyn,11249,40.28
318,337.0,Old Slip & Front St,40.7037992,-74.00838676,,Financial District,Manhattan,10005,6.62
319,431.0,Hanover Pl & Livingston St,40.68864636,-73.98263429,,Downtown Brooklyn,,11201,39.59
320,248.0,Laight St & Hudson St,40.72185379,-74.00771779,91.0,Tribeca,Manhattan,10013,15.3
321,242.0,Flushing Ave & Carlton Ave,40.69788349,-73.97350332,,Fort Greene,,11205,16.39
322,510.0,W 51 St & 6 Ave,40.7606597,-73.98042047,55.0,Manhattan Community Board 5,Manhattan,10111,61.64
323,137.0,E 56 St & Madison Ave,40.761628,-73.972924,23.0,Manhattan Community Board 5,Manhattan,10022,51.53
324,418.0,Front St & Gold St,40.70224,-73.982578,37.0,,Brooklyn,11201,39.96
325,421.0,Clermont Ave & Park Ave,40.69573398,-73.97129668,19.0,,Brooklyn,11238,39.27
326,289.0,Monroe St & Classon Ave,40.6845683,-73.95881081,19.0,,Brooklyn,11221,75.79
327,343.0,Clinton Ave & Flushing Ave,40.69794,-73.96986848,23.0,,Brooklyn,11251,16.59
328,2001.0,Sands St & Navy St,40.699773,-73.979927,,,,11251,9.81
329,2005.0,Railroad Ave & Kay Ave,40.70531194,-73.97100056,30.0,,,11251,0.87
330,319.0,Fulton St & Broadway,40.711066,-74.009447,33.0,Financial District,Manhattan,10038,30.69
331,3155.0,Lexington Ave & E 63 St,40.76440023,-73.96648977,,Manhattan Community Board 8,Manhattan,10021,55
332,3091.0,Frost St & Meeker St,40.71764,-73.94882,,,Brooklyn,11222,16.89
333,3076.0,Scholes St & Manhattan Ave,40.70870368,-73.9448625,36.0,,Brooklyn,11206,36.65
334,3090.0,N 8 St & Driggs Ave,40.71774592,-73.95600096,,,Brooklyn,11249,18.96
335,3166.0,Riverside Dr & W 72 St,40.78057799010334,-73.98562431335449,41.0,Manhattan Community Board 7,Manhattan,10069,60.32
336,3121.0,Jackson Ave & 46 Rd,40.74524768,-73.94733276,27.0,,Queens,11101,12.33
337,3111.0,Norman Ave & Leonard St,40.7258483,-73.95064893,,,Brooklyn,11222,21.53
338,3103.0,N 11 St & Wythe Ave,40.72153267,-73.95782357,,,Brooklyn,11211,24.05
339,253.0,W 13 St & 5 Ave,40.73543934,-73.99453948,29.0,West Village,Manhattan,10011,32.75
340,3099.0,Leonard St & Manhattan Ave,40.72152240339303,-73.94898265600203,,,Brooklyn,11222,15.33
341,3175.0,W 70 St & Amsterdam Ave,40.77748046,-73.98288594,43.0,Manhattan Community Board 7,Manhattan,10023,73.19
342,3092.0,Berry St & N 8 St,40.7190095,-73.95852515,27.0,,Brooklyn,11249,38.13
343,3159.0,W 67 St & Broadway,40.77492513,-73.98266566,31.0,Manhattan Community Board 7,Manhattan,10023,74
344,3073.0,Division Ave & Hooper St,40.70691254,-73.95441667,61.0,,Brooklyn,11249,35.97
345,3140.0,1 Ave & E 78 St,40.77140426,-73.9535166,57.0,,Manhattan,10075,36.6
346,3119.0,Vernon Blvd & 50 Ave,40.74232744,-73.95411749,45.0,Hunters Point,Queens,11109,12.68
347,3222.0,Hanson Pl & St Felix St,40.685159599891776,-73.97711366415024,,,Brooklyn,11227,48.92
348,3087.0,Metropolitan Ave & Meeker Ave,40.71413311,-73.95234386,30.0,,Brooklyn,11211,16.68
349,3128.0,21 St & 43 Ave,40.75052534,-73.94594845,27.0,Court Square,Queens,11101,19.34
350,3177.0,W 84 St & Broadway,40.7867947,-73.977112,63.0,Manhattan Community Board 7,Manhattan,10024,76.22
351,3071.0,Boerum St & Broadway,40.70538077,-73.94976519,19.0,,Brooklyn,11206,16.18
352,3176.0,W 64 St & West End Ave,40.77452835,-73.98753759,,Manhattan Community Board 7,Manhattan,10023,44.82
353,3126.0,44 Dr & Jackson Ave,40.74718234,-73.9432635,34.0,Court Square,Queens,11101,16.06
354,3134.0,3 Ave & E 62 St,40.76312584,-73.96526895,51.0,Manhattan Community Board 8,Manhattan,10065,58.92
355,3118.0,McGuinness Blvd & Eagle St,40.73555,-73.95284,42.0,,Brooklyn,11109,9.1
356,3069.0,Lorimer St & Broadway,40.70411791,-73.94818595,29.0,,Brooklyn,11221,13.01
357,3158.0,W 63 St & Broadway,40.77163851,-73.98261428,31.0,Lincoln Square,Manhattan,10023-7503,78.46
358,3102.0,Driggs Ave & Lorimer St,40.72179134,-73.9504154,27.0,,Brooklyn,11211,13.99
359,3104.0,Kent Ave & N 7 St,40.72057658,-73.96150225,54.0,,Brooklyn,11211,15.31
360,3224.0,W 13 St & Hudson St,40.73997354103409,-74.00513872504234,,West Village,Manhattan,10014,16.37
361,3168.0,Central Park West & W 85 St,40.78472675,-73.96961715,38.0,,Manhattan,10024,116.97
362,3059.0,Pulaski St & Marcus Garvey Blvd,40.6933982,-73.939877,19.0,,Brooklyn,11221,57.17
363,3132.0,E 59 St & Madison Ave,40.76350532,-73.97109243,35.0,,Manhattan,10022,47.74
364,3109.0,Banker St & Meserole Ave,40.72606,-73.95621,31.0,,Brooklyn,11222,10.29
365,3062.0,Myrtle Ave & Marcy Ave,40.69539817,-73.94954908,23.0,,Brooklyn,11237,28.74
366,3083.0,Bushwick Ave & Powers St,40.71247661,-73.94100005,32.0,,Brooklyn,11207,44.02
367,3085.0,Roebling St & N 4 St,40.71469,-73.95739,25.0,,Brooklyn,11249,25.22
368,3135.0,E 75 St & 3 Ave,40.77112927,-73.95772297,41.0,Lenox Hill,Manhattan,10021,44.73
369,3124.0,46 Ave & 5 St,40.74731,-73.95451,43.0,,Queens,11101,6.67
370,3079.0,Leonard St & Grand St,40.71103537,-73.94714303,,,Brooklyn,11222,36.39
371,3086.0,Graham Ave & Conselyea St,40.715143,-73.944507,30.0,,Brooklyn,11211,33.63
372,3171.0,Amsterdam Ave & W 82 St,40.78524672,-73.97667321,39.0,Manhattan Community Board 7,Manhattan,10024,78.62
373,3164.0,Columbus Ave & W 72 St,40.7770575,-73.97898475,67.0,Manhattan Community Board 7,Manhattan,10023,83.32
374,3156.0,E 72 St & York Ave,40.76663814,-73.95348296,37.0,Lenox Hill,Manhattan,10021,29.56
375,3145.0,E 84 St & Park Ave,40.77862688,-73.95772073,45.0,,Manhattan,10028,90.84
376,3112.0,Milton St & Franklin St,40.72906,-73.95779,33.0,,Brooklyn,11222,15.36
377,3093.0,N 6 St & Bedford Ave,40.71745169,-73.95850939,28.0,,Brooklyn,11249,29.59
378,3232.0,Bond St & Fulton St,40.68962188790333,-73.98304268717766,47.0,Downtown Brooklyn,,11231,39.64
379,3066.0,Tompkins Ave & Hopkins St,40.69957608,-73.94708417,19.0,,Brooklyn,11216,15.1
380,3043.0,Lewis Ave & Decatur St,40.6814598,-73.934903,19.0,,Brooklyn,11221,55.57
381,3161.0,W 76 St & Columbus Ave,40.7801839724239,-73.97728532552719,59.0,Manhattan Community Board 7,Manhattan,10023,86.02
382,3172.0,W 74 St & Columbus Ave,40.7785669,-73.97754961,27.0,Manhattan Community Board 7,Manhattan,10023,84.47
383,3105.0,N 15 St & Wythe Ave,40.724055,-73.955736,54.0,,Brooklyn,11222,8.95
384,3084.0,Devoe St & Leonard St,40.71348658,-73.94792458,,,Brooklyn,11211,31.13
385,3229.0,Marcy Ave & MacDonough St,40.68061768455451,-73.94624948501587,,,Brooklyn,11216,54.2
386,3235.0,E 41 St & Madison Ave,40.752165280621966,-73.97992193698882,,Midtown South,Manhattan,10017,70.11
387,3068.0,Humboldt St & Varet St,40.7031724,-73.940636,42.0,,Brooklyn,11211,21.99
388,3042.0,Fulton St & Utica Ave,40.6794268,-73.9298911,19.0,,Brooklyn,11207,57.6
389,3108.0,Nassau Ave & Russell St,40.72557,-73.94434,51.0,,Brooklyn,11222,15.97
390,3056.0,Kosciuszko St & Nostrand Ave,40.69072549,-73.95133465,23.0,,Brooklyn,11216,38.08
391,3082.0,Hope St & Union Ave,40.71167351,-73.95141312,25.0,,Brooklyn,11211,19.1
392,3147.0,E 85 St & 3 Ave,40.77801203,-73.95407149,39.0,Manhattan Community Board 8,Manhattan,10028,72.93
393,3044.0,Albany Ave & Fulton St,40.6800105,-73.938475,27.0,,Brooklyn,11216,60.29
394,3041.0,Kingston Ave & Herkimer St,40.67890679,-73.94142771,24.0,,Brooklyn,11213,60.36
395,3081.0,Graham Ave & Grand St,40.711863,-73.944024,29.0,,Brooklyn,11206,38.91
396,3064.0,Myrtle Ave & Lewis Ave,40.69681963,-73.93756926,23.0,,Brooklyn,11237,78.97
397,3162.0,W 78 St & Broadway,40.78339981,-73.98093133,,Manhattan Community Board 7,Manhattan,10024,76.82
398,3233.0,E 48 St & 5 Ave,40.75724567911726,-73.97805914282799,41.0,Manhattan Community Board 5,Manhattan,10017,67.9
399,3048.0,Putnam Ave & Nostrand Ave,40.68402,-73.94977,19.0,,Brooklyn,11216,47.47
400,3061.0,Throop Ave & Myrtle Ave,40.69622937,-73.94371094,21.0,,Brooklyn,11206,43.51
401,3116.0,Huron St & Franklin St,40.73266,-73.95826,35.0,,Brooklyn,11222,12.03
402,3106.0,Driggs Ave & N Henry St,40.72325,-73.94308,52.0,,Brooklyn,11211,25.83
403,3149.0,E 82 St & 2 Ave,40.77517793,-73.95324922,,Manhattan Community Board 8,Manhattan,10028,55.46
404,3075.0,Division Ave & Marcy Ave,40.70708701,-73.95796783,33.0,,Brooklyn,11249,43.35
405,3074.0,Montrose Ave & Bushwick Ave,40.70767788,-73.94016171,42.0,,Brooklyn,11206,36.94
406,3167.0,Amsterdam Ave & W 73 St,40.77966809007312,-73.98093044757842,55.0,Manhattan Community Board 7,Manhattan,10023,76.64
407,3231.0,E 67 St & Park Ave,40.76780080148132,-73.96592080593109,39.0,Manhattan Community Board 8,Manhattan,10021,66.5
408,3107.0,Bedford Ave & Nassau Ave,40.72311651,-73.95212324,39.0,,Brooklyn,11249,13.68
409,3146.0,E 81 St & 3 Ave,40.77573034,-73.9567526,47.0,Manhattan Community Board 8,Manhattan,10028,66.88
410,3117.0,Franklin St & Dupont St,40.73564,-73.95866,27.0,Greenpoint Landing,,11222,12.19
411,3170.0,W 84 St & Columbus Ave,40.78499979,-73.97283406,35.0,Manhattan Community Board 7,Manhattan,10024,88.6
412,3173.0,Riverside Blvd & W 67 St,40.777507027547976,-73.98888587951659,79.0,Manhattan Community Board 7,Manhattan,10069,13.37
413,3129.0,Queens Plaza North & Crescent St,40.75110165,-73.94073717,40.0,Queensbridge,Queens,11101,21.7
414,3115.0,India St & Manhattan Ave,40.73232194,-73.9550858,50.0,,Brooklyn,11222,19.28
415,3120.0,Center BlvdÂ & Borden Ave,40.74161,-73.96044,,Hunters Point,Queens,11101,0.84
416,3123.0,31 St & Thomson Ave,40.74469738,-73.93540375,47.0,Sunnyside,Queens,11101,21.55
417,3179.0,Park Ave & Marcus Garvey Blvd,40.698617,-73.941342,23.0,,Brooklyn,11206,42.26
418,3095.0,Graham Ave & Herbert St,40.71929301,-73.94500379,26.0,,Brooklyn,11211,18.16
419,3148.0,E 84 St & 1 Ave,40.77565541,-73.95068615,31.0,Manhattan Community Board 8,Manhattan,10028,59.75
420,3150.0,E 85 St & York Ave,40.77536905,-73.94803392,47.0,Manhattan Community Board 8,Manhattan,10028,54.26
421,3094.0,Graham Ave & Withers St,40.7169811,-73.94485918,18.0,,Brooklyn,11211,23.21
422,3097.0,N Henry St & Richardson St,40.71921585,-73.9424469,,,Brooklyn,11222,25.34
423,3178.0,Riverside Dr & W 78 St,40.78414472,-73.98362492,79.0,Manhattan Community Board 7,Manhattan,10024,53.05
424,3234.0,E 40 St & Madison Ave,40.75159368451112,-73.98043155670166,,Midtown South,Manhattan,10017,73.79
425,3080.0,S 4 St & Rodney St,40.70934,-73.95608,21.0,,Brooklyn,11211,28.04
426,3110.0,Meserole Ave & Manhattan Ave,40.72708584,-73.95299117,28.0,,Brooklyn,11222,20.43
427,3077.0,Stagg St & Union Ave,40.70877084,-73.95095259,33.0,,Brooklyn,11211,29.85
428,3052.0,Lewis Ave & Madison St,40.686312,-73.935775,23.0,,Brooklyn,11221,70.12
429,3098.0,Leonard St & Bayard St,40.71928,-73.94861,,,Brooklyn,11222,13.98
430,3226.0,W 82 St & Central Park West,40.78275,-73.97137,45.0,Manhattan Community Board 7,Manhattan,10024,97.41
431,3065.0,Union Ave & Wallabout St,40.70029511,-73.95032283,31.0,,Brooklyn,11211,11.98
432,3127.0,9 St & 44 Rd,40.74966,-73.9521,34.0,,Queens,11109,10.37
433,3046.0,Marcus Garvey Blvd & Macon St,40.682601,-73.938037,19.0,,,11216,50.77
434,3047.0,Halsey St & Tompkins Ave,40.6823687,-73.944118,21.0,,Brooklyn,11233,48.77
435,3063.0,Nostrand Ave & Myrtle Ave,40.69527008,-73.95238108,20.0,,Brooklyn,11235,25.78
436,3101.0,N 12 St & Bedford Ave,40.72079821,-73.95484712,27.0,,Brooklyn,11211,15.64
437,3058.0,Lewis Ave & Kosciuszko St,40.69237074,-73.93705428,24.0,,Brooklyn,11221,57.15
438,3221.0,47 Ave & 31 St,40.743,-73.93561,27.0,Sunnyside,Queens,11101,16.71
439,3169.0,Riverside Dr & W 82 St,40.78720869,-73.98128127,74.0,Manhattan Community Board 7,Manhattan,10024,50.5
440,3143.0,5 Ave & E 78 St,40.77682863439968,-73.96388769149779,47.0,Manhattan Community Board 8,Manhattan,10075,74.62
441,3049.0,Cambridge Pl & Gates Ave,40.68488,-73.96304,18.0,,Brooklyn,11238,67.68
442,3067.0,Broadway & Whipple St,40.7016657,-73.9437303,27.0,,Brooklyn,11207,18.9
443,3060.0,Willoughby Ave & Tompkins Ave,40.69425403,-73.94626915,19.0,,Brooklyn,11221,38.93
444,3114.0,India St & East River,40.73165141,-73.96161892,,,Brooklyn,11222,1.59
445,3122.0,48 Ave & 5 St,40.74436328706688,-73.9558732509613,79.0,Hunters Point,Queens,11109,8.38
446,3053.0,Marcy Ave & Lafayette Ave,40.6900815,-73.947915,23.0,,Brooklyn,11216,45.19
447,3139.0,E 72 St & Park Ave,40.77118287540658,-73.96409422159195,43.0,Manhattan Community Board 8,Manhattan,10021,67.88
448,3050.0,Putnam Ave & Throop Ave,40.6851532,-73.94111,21.0,,Brooklyn,11221,55.71
449,3088.0,Union Ave & Jackson St,40.7160751,-73.952029,19.0,,Brooklyn,11211,14.76
450,3136.0,5 Ave & E 63 St,40.76650452,-73.97147595,51.0,,Manhattan,10153,49.66
451,3054.0,Greene Ave & Throop Ave,40.6894932,-73.942061,19.0,,Brooklyn,11221,53.25
452,3137.0,5 Ave & E 73 St,40.77282817,-73.96685276,,,Manhattan,10075-0381,70.8
453,3057.0,Kosciuszko St & Tompkins Ave,40.69128258,-73.9452416,18.0,,Brooklyn,11221,41.16
454,3223.0,E 55 St & 3 Ave,40.75899655960512,-73.96865397691727,,Manhattan Community Board 6,Manhattan,10022,37.32
455,3144.0,E 81 St & Park Ave,40.77677702,-73.9590097,46.0,Manhattan Community Board 8,Manhattan,10028,78.63
456,3072.0,Leonard St & Boerum St,40.70583339,-73.94644578,24.0,,Brooklyn,11222,17.24
457,3055.0,Greene Ave & Nostrand Ave,40.6883337,-73.950916,23.0,,Brooklyn,11216,50
458,3180.0,Brooklyn Bridge Park - Pier 2,40.69878,-73.99712,31.0,,Brooklyn,11201,6.39
459,3125.0,45 Rd & 11 St,40.74708586,-73.94977234,23.0,,Queens,11101,12.37
460,3070.0,McKibbin St & Manhattan Ave,40.70510918,-73.94407279,23.0,,Brooklyn,11206,20.11
461,3157.0,East End Ave & E 86 St,40.77518615,-73.94446054,27.0,Manhattan Community Board 8,Manhattan,10028,28.7
462,3237.0,21 St & 41 Ave,40.75383343437622,-73.94267678260802,,Queensbridge,Queens,11101,18.31
463,3113.0,Greenpoint Ave & Manhattan Ave,40.73026,-73.95394,27.0,,Brooklyn,11222,31.26
464,3141.0,1 Ave & E 68 St,40.76500525,-73.95818491,62.0,Manhattan Community Board 8,Manhattan,10021,48.12
465,3160.0,Central Park West & W 76 St,40.77896784,-73.97374737,39.0,,Manhattan,10023-5104,90.42
466,3230.0,Penn Station Valet,40.751283596962296,-73.99692445993422,,Chelsea District,Manhattan,10119,36.42
467,3142.0,1 Ave & E 62 St,40.7612274,-73.96094022,45.0,Manhattan Community Board 8,Manhattan,10065,45.89
468,3165.0,Central Park West & W 72 St,40.77579376683666,-73.9762057363987,51.0,Manhattan Community Board 7,Manhattan,10023,89.55
469,3236.0,PABT Valet,40.75898481399634,-73.99379968643188,,Manhattan Community Board 4,Manhattan,10036,30.4
470,3089.0,Leonard St & Meeker Ave,40.717318403855785,-73.94820213317871,,,Brooklyn,11211,17.69
471,3096.0,Union Ave & N 12 St,40.71924,-73.95242,39.0,,Brooklyn,11211,14.26
472,3163.0,Central Park West & W 68 St,40.7734066,-73.97782542,43.0,,Manhattan,10023-5104,88.44
473,3154.0,E 77 St & 3 Ave,40.77314236,-73.95856158,46.0,Manhattan Community Board 8,Manhattan,10075,52.59
474,3151.0,E 81 St & York Ave,40.7728384,-73.94989233,47.0,Manhattan Community Board 8,Manhattan,10075,38.27
475,3078.0,Broadway & Roebling St,40.70925562,-73.95982218,27.0,,Brooklyn,11249,45.48
476,3138.0,E 77 St & Park Ave,40.774405455003,-73.96175265312193,,Manhattan Community Board 8,Manhattan,10075,70.09
477,3153.0,E 71 St & 2 Ave,40.76817546742245,-73.95910263061523,,Manhattan Community Board 8,Manhattan,10021,56.08
478,3238.0,E 80 St & 2 Ave,40.77391390238118,-73.9543953537941,,Manhattan Community Board 8,Manhattan,10075,48.28
479,3241.0,Monroe St & Tompkins Ave,40.686203,-73.944694,19.0,,Brooklyn,11216,57.38
480,3242.0,Schermerhorn St & Court St,40.69102925677968,-73.99183362722397,59.0,Brooklyn Heights,,11217,57.46
481,255.0,NYCBS Depot - SSP,40.646768,-74.01651,,Sunset Park,,11220,46.05
482,3016.0,Mobile 01,40.771051856415305,-73.9643383026123,,Manhattan Community Board 8,Manhattan,10021,68.54
483,3014.0,E.T. Bike-In Movie Valet Station ,40.722852,-73.959114,,,Brooklyn,11249,12.49
484,3181.0,Soissons Landing,40.692609,-74.016398,29.0,Nolan Park,Manhattan,10004,20.46
485,3182.0,Yankee Ferry Terminal,40.686931,-74.016966,42.0,Nolan Park,Manhattan,112321,2.17
486,3130.0,21 St & Queens Plaza North,40.75325964,-73.94335788,35.0,Queensbridge,Queens,11101,18
487,3133.0,E 67 St & Park Ave,40.76735637,-73.96493528,39.0,Manhattan Community Board 8,Manhattan,10021,70.6
488,3243.0,E 58 St & 1 Ave,40.75892386377695,-73.96226227283478,,Manhattan Community Board 6,Manhattan,10022,54.13
489,3244.0,University Pl & E 8 St,40.73143724085228,-73.99490341544151,79.0,West Village,Manhattan,10014,30.83
490,3357.0,W 106 St & Amsterdam Ave,40.8008363,-73.9664492472,35.0,Manhattan Community Board 7,Manhattan,10025,106.78
491,3259.0,9 Ave & W 28 St,40.74937024193277,-73.99923384189606,,Chelsea,Manhattan,10019,25.39
492,3436.0,Greenwich St & Hubert St,40.721319,-74.010065,35.0,Tribeca,Manhattan,10013,11.47
493,3258.0,W 27 St & 10 Ave,40.75018156325683,-74.00218427181244,,Chelsea,Manhattan,10001,13.38
494,3420.0,Douglass St & 3 Ave,40.6802133,-73.98432695,35.0,,Brooklyn,11217,19.42
495,3263.0,Cooper Square & E 7 St,40.72923649910006,-73.99086803197861,,East Village,Manhattan,,40.46
496,3417.0,Baltic St & 5 Ave,40.6795766,-73.97854971,,Park Slope,,11217,39.69
497,3427.0,Lafayette St & Jersey St,40.72430527250332,-73.99600982666016,40.0,Little Italy,Manhattan,10012-3332,39.38
498,3300.0,Prospect Park West & 8 St,40.66514681533792,-73.97637605667114,25.0,,Brooklyn,11215,158.07
499,3265.0,E 2 St & 2 Ave,40.7245634290432,-73.9894437789917,58.0,East Village,Manhattan,10003,37.49
500,3428.0,8 Ave & W 16 St,40.740983,-74.001702,36.0,Chelsea District,Manhattan,10011,22.41
501,3397.0,Court St & Nelson St,40.6763947,-73.99869893,33.0,,Brooklyn,11231,30.96
502,3309.0,E 97 St & 3 Ave,40.7859201,-73.94860294,30.0,East Harlem,Manhattan,10029,32
503,3255.0,8 Ave & W 31 St,40.7505853470215,-73.9946848154068,18.0,Chelsea District,Manhattan,10119,34.49
504,3345.0,Madison Ave & E 99 St,40.78948541553215,-73.95242929458618,35.0,East Harlem,Manhattan,10037,48.24
505,3290.0,E 89 St & York Ave,40.7779453,-73.946041,35.0,Manhattan Community Board 8,Manhattan,10128,19.52
506,3305.0,E 91 St & 2 Ave,40.78112229934166,-73.94965589046478,73.0,Manhattan Community Board 8,Manhattan,10128,38.33
507,3315.0,Henry St & Degraw St,40.6847514,-73.99917254,23.0,Cobble Hill Historic District,,11231,32.27
508,3382.0,Carroll St & Smith St,40.680611,-73.99475825,41.0,Carroll Gardens Historic District,,11231,52.63
509,3383.0,Cathedral Pkwy & Broadway,40.804213,-73.96699104,25.0,Bloomingdale,Manhattan,10025-4403,110.94
510,3379.0,E 103 St & Lexington Ave,40.7903051,-73.94755757,35.0,East Harlem,Manhattan,10029,18.64
511,3260.0,Mercer St & Bleecker St,40.72706363348306,-73.99662137031554,45.0,West Village,Manhattan,10014,35.94
512,3292.0,5 Ave & E 93 St,40.7857851,-73.957481,43.0,,Manhattan,10129,97.96
513,3384.0,Smith St & 3 St,40.6787242,-73.99599099,25.0,Boerum Hill,,11231,47.38
514,3356.0,Amsterdam Ave & W 66 St,40.7746671,-73.98470567,21.0,Lincoln Square,Manhattan,10023,61.56
515,3307.0,West End Ave & W 94 St,40.7941654,-73.974124,31.0,Manhattan Community Board 7,Manhattan,10025,63.49
516,3350.0,W 100 St & Broadway,40.7973721,-73.97041192,39.0,Manhattan Community Board 7,Manhattan,10025,90.56
517,3325.0,E 95 St & 3 Ave,40.7849032,-73.950503,31.0,Carnegie Hill,Manhattan,10128,59.83
518,3336.0,E 97 St & Madison Ave,40.787801,-73.953559,41.0,East Harlem,Manhattan,10129,72.03
519,3372.0,E 74 St & 1 Ave,40.7689738,-73.95482273,79.0,Lenox Hill,Manhattan,10021,30.03
520,3435.0,Grand St & Elizabeth St,40.718822,-73.99596,28.0,Lower East Side,Manhattan,10013,32.45
521,3430.0,Richardson St & N Henry St,40.71907891179564,-73.94223690032959,25.0,,Brooklyn,11222,26.07
522,3402.0,Court St & State St,40.6902375,-73.99203074,32.0,Brooklyn Heights,,11231,52.81
523,3374.0,Central Park North & Adam Clayton Powell Blvd,40.799484,-73.955613,36.0,,Manhattan,10026,36.78
524,3429.0,Hanson Pl & Ashland Pl,40.68506807308177,-73.97790759801863,39.0,Fort Greene,,11217,45.45
525,3413.0,Wyckoff St & 3 Ave,40.6827549,-73.98258555,,Boerum Hill,,11217,23.09
526,3323.0,W 106 St & Central Park West,40.7981856,-73.9605909006,59.0,Manhattan Community Board 7,Manhattan,10025,80.46
527,3285.0,W 87 St  & Amsterdam Ave,40.78839,-73.9747,,Manhattan Community Board 7,Manhattan,10024,90.76
528,3359.0,E 68 St & Madison Ave,40.7691572,-73.96703464,59.0,Manhattan Community Board 8,Manhattan,10021,73.3
529,3364.0,Carroll St & 5 Ave,40.6751622,-73.9814832,27.0,Park Slope,,11215,51.56
530,3152.0,3 Ave & E 71 St,40.76873687,-73.96119945,42.0,Manhattan Community Board 8,Manhattan,10021,73.34
531,3400.0,E 110 St & Madison Ave,40.7961535,-73.94782145,24.0,East Harlem,Manhattan,10029,16.96
532,3431.0,E 35 St & 3 Ave,40.746524,-73.977885,,Murray Hill,Manhattan,10016,35.95
533,3355.0,E 66 St & Madison Ave,40.76800889305947,-73.96845281124115,25.0,Manhattan Community Board 8,Manhattan,10021,59.98
534,3100.0,Nassau Ave & Newell St,40.724812564400175,-73.94752621650696,51.0,,Brooklyn,11222,13.62
535,3302.0,Columbus Ave & W 103 St,40.7969347,-73.9643412291,40.0,Bloomingdale,Manhattan,10025,110.72
536,3131.0,E 68 St & 3 Ave,40.76712840349542,-73.96224617958069,36.0,Manhattan Community Board 8,Manhattan,10021,75.58
537,3386.0,1 Pl & Clinton St,40.6809591,-73.99905709,34.0,,Brooklyn,11231,52.16
538,3375.0,3 Ave & E 72 St,40.7699426,-73.96060712,35.0,Carnegie Hill,Manhattan,10035,67.83
539,3422.0,Columbia St & Degraw St,40.6859296,-74.00242364,21.0,,Brooklyn,11231,14.91
540,3425.0,2 Ave  & E 104 St,40.7892105,-73.94370784,,East Harlem,Manhattan,10029,18.94
541,3396.0,Clinton St & 4 Place,40.6783563,-74.00014502,25.0,Cobble Hill Historic District,,11231,36.12
542,3311.0,Columbia St & Kane St,40.68763155,-74.0016256,20.0,,Brooklyn,11231,13.07
543,3343.0,W 107 St & Columbus Ave,40.7997568,-73.9621128676,23.0,Manhattan Community Board 7,Manhattan,10025-4403,77.33
544,3412.0,Pacific St & Nevins St,40.6853761,-73.98302136,18.0,Boerum Hill,,11217,31.51
545,3361.0,Carroll St & 6 Ave,40.6740886,-73.9787282,23.0,Park Slope,,11215,79.28
546,3295.0,Central Park W & W 96 St,40.79127,-73.964839,,,Manhattan,10025,102.35
547,3301.0,Columbus Ave & W 95 St,40.7919557,-73.968087,39.0,Manhattan Community Board 7,Manhattan,10025,114.68
548,3363.0,E 102 St & Park Ave,40.7904828,-73.95033068,33.0,East Harlem,Manhattan,10029,27.86
549,3360.0,Amsterdam Ave & W 79 St,40.7829391,-73.9786517,48.0,Manhattan Community Board 7,Manhattan,10024,77.19
550,3434.0,W 88 St & West End Ave,40.79025417330419,-73.97718340158461,,Manhattan Community Board 7,Manhattan,10024,76.98
551,3286.0,E 89 St & 3 Ave,40.7806284,-73.9521667,39.0,Carnegie Hill,Manhattan,10128,75.86
552,3313.0,6 Ave & 12 St,40.6663181,-73.9854617,29.0,Park Slope,,11215,98.9
553,3365.0,3 St & 7 Ave,40.6703837,-73.97839676,27.0,Park Slope,,11215,93.87
554,3256.0,Pier 40 - Hudson River Park,40.7277140777778,-74.01129573583603,23.0,Hudson Square,Manhattan,10282,7.91
555,3293.0,W 92 St & Broadway,40.7921,-73.9739,24.0,Manhattan Community Board 7,Manhattan,10023,91.97
556,3282.0,5 Ave & E 88 St,40.78307,-73.95939,,,Manhattan,10128,108.26
557,3331.0,Riverside Dr & W 104 St,40.8013434,-73.9711457439,58.0,Manhattan Community Board 7,Manhattan,10025,95.06
558,3362.0,Madison Ave & E 82 St,40.7781314,-73.96069399,34.0,Manhattan Community Board 8,Manhattan,10028,88.34
559,3387.0,E 106 St & Madison Ave,40.7934337,-73.94945003,25.0,East Harlem,Manhattan,10029,18.3
560,3308.0,Kane St & Clinton St,40.6861758,-73.99645295,27.0,Cobble Hill Historic District,,11231,31.99
561,3321.0,Clinton St & Union St,40.6831164,-73.99785267,38.0,Cobble Hill Historic District,,11231,46.01
562,3366.0,West End Ave & W 107 St,40.8021174,-73.9681805305,31.0,Manhattan Community Board 7,Manhattan,10025-4403,108.38
563,3322.0,12 St & 4 Ave,40.668603,-73.9904394,25.0,Park Slope,,11215,41.19
564,3320.0,Central Park West & W 100 St,40.793393,-73.9635556,,Manhattan Community Board 7,Manhattan,10025,90.66
565,3358.0,Garfield Pl & 8 Ave,40.6711978,-73.97484126,25.0,Park Slope,,11215,114.08
566,3377.0,Carroll St & Bond St,40.6786115,-73.99037292,25.0,,Brooklyn,11231,16.33
567,3414.0,Bergen St & Flatbush Ave,40.680944723477296,-73.97567331790923,33.0,Park Slope,,11213,55.16
568,3405.0,5 St & 6 Ave,40.6704836,-73.98208968,23.0,,Brooklyn,11215,68.63
569,3312.0,1 Ave & E 94 St,40.7817212,-73.94594,39.0,Manhattan Community Board 8,Manhattan,10128,12.11
570,3316.0,W 104 St & Amsterdam Ave,40.7989937,-73.9662173778,47.0,Manhattan Community Board 7,Manhattan,10025,104.94
571,3424.0,E 106 St & Lexington Ave,40.791976,-73.945993,27.0,East Harlem,Manhattan,10029,16.71
572,3310.0,14 St & 7 Ave,40.663779,-73.98396846,24.0,Park Slope,,11215,136.46
573,3306.0,10 St & 7 Ave,40.6662078,-73.98199886,23.0,Park Slope,,11215,121.91
574,3346.0,Berkeley Pl & 7 Ave,40.675146838709786,-73.97523209452629,29.0,Park Slope,,11217,90.73
575,3392.0,Commerce St & Van Brunt St,40.6812117,-74.00860912,19.0,,Brooklyn,11231,6.15
576,3370.0,E 78 St & 2 Ave,40.7727966,-73.95577801,25.0,Manhattan Community Board 8,Manhattan,10021,44.85
577,3249.0,Verona Pl & Fulton St,40.6803560840434,-73.9476791024208,19.0,,Brooklyn,11216,57.28
578,3368.0,5 Ave & 3 St,40.6728155,-73.98352355,30.0,Park Slope,,11209,40.97
579,3335.0,Union St & 4 Ave,40.6772744,-73.98282002,28.0,Park Slope,,11215,27.57
580,3348.0,Coffey St & Conover St,40.677236,-74.015665,32.0,,Brooklyn,11231,13.78
581,3303.0,Butler St & Court St,40.6849894,-73.99440329,35.0,,Brooklyn,11231,40.27
582,3409.0,Bergen St & Smith St,40.6867443,-73.99063168,48.0,Boerum Hill,,11213,23.8
583,3294.0,E 91 St & Park Ave,40.7835016,-73.955327,,Carnegie Hill,Manhattan,10128,104.91
584,3288.0,E 88 St & 1 Ave,40.778301,-73.9488134,39.0,Carnegie Hill,Manhattan,10128,39.84
585,3411.0,Bond St & Bergen St,40.6849668,-73.98620772,27.0,Boerum Hill,,11217,18.79
586,3354.0,3 St & Prospect Park West,40.668132,-73.97363831,31.0,,Brooklyn,11215,152.42
587,3329.0,Degraw St & Smith St,40.6829151,-73.99318208,27.0,Cobble Hill Historic District,,11217,34.48
588,3327.0,3 Ave & E 100 St,40.7877214,-73.94728331,27.0,East Harlem,Manhattan,10029,21.65
589,3394.0,Columbia St & W 9 St,40.6769993,-74.00647134,21.0,,,112321,9.22
590,3376.0,E 65 St & 2 Ave,40.76471851944339,-73.96222069859505,48.0,Manhattan Community Board 8,Manhattan,10065,61.51
591,3423.0,West Drive & Prospect Park West,40.6610633719006,-73.97945255041122,29.0,Park Slope,,11215,151.57
592,3284.0,E 88 St & Park Ave,40.781410700190015,-73.95595908164978,38.0,Carnegie Hill,Manhattan,10128,94.84
593,3389.0,Carroll St & Columbia St,40.6830456,-74.00348559,39.0,,Brooklyn,11231,15.75
594,3332.0,Degraw St & Hoyt St,40.68199044270703,-73.99079024791718,27.0,,Brooklyn,11217,21.43
595,3347.0,Van Brunt St & Wolcott St,40.6773429,-74.01275056,36.0,,,11231,9.36
596,3338.0,2 Ave & E 99 St,40.7862586,-73.94552579,31.0,East Harlem,Manhattan,10035,15.67
597,3408.0,Congress St & Clinton St,40.6881529,-73.99520919,44.0,Cobble Hill Historic District,,11201,39.61
598,3418.0,Plaza St West & Flatbush Ave,40.6750207,-73.97111473,33.0,Park Slope,,11238,123.58
599,3339.0,Berkeley Pl & 6 Ave,40.6765304,-73.97846879,41.0,Park Slope,,11217,57.66
600,3328.0,W 100 St & Manhattan Ave,40.795,-73.9645,39.0,Manhattan Community Board 7,Manhattan,10025,87.87
601,3298.0,Warren St & Court St,40.686371,-73.99383324,31.0,,Brooklyn,11201,36.19
602,3415.0,Prospect Pl & 6 Ave,40.6793307,-73.97519523,25.0,Park Slope,,11217,64.7
603,3344.0,Pioneer St & Van Brunt St,40.679043,-74.011169,39.0,,Brooklyn,11231,7.16
604,3319.0,14 St & 5 Ave,40.666287,-73.98895053,21.0,Park Slope,,11215,79.59
605,3351.0,E 102 St & 1 Ave,40.7869946,-73.94164802,25.0,East Harlem,Manhattan,10029,10.2
606,3340.0,Wolcott St & Dwight St,40.6753274,-74.0100698,21.0,,,11231,7.2
607,3391.0,E 106 St & 1 Ave,40.7892529,-73.93956237,26.0,East Harlem,Manhattan,10029,7.66
608,3388.0,President St & Henry St,40.6828003,-73.99990419,0.0,,Brooklyn,11231,40.73
609,3378.0,E 76 St & Park Ave,40.773763,-73.96222088,28.0,Manhattan Community Board 8,Manhattan,10021,65.95
610,3410.0,Dean St & Hoyt St,40.6864442,-73.98759104,77.0,,Brooklyn,11217,24.29
611,3419.0,Douglass St & 4 Ave,40.6792788,-73.98154004,51.0,,Brooklyn,11217,27.62
612,3393.0,Richards St & Delavan St,40.6794327,-74.00785041,19.0,,Brooklyn,11231,7.83
613,3341.0,Central Park West & W 102 St,40.795346,-73.96186,,,Manhattan,10025-4403,81.57
614,3264.0,E 61 St & Park Ave,40.76421007169064,-73.96910458803177,,,Manhattan,10065,51.45
615,3304.0,6 Ave & 9 St,40.668127,-73.98377641,27.0,Park Slope,,11215,90.17
616,3421.0,Hoyt St & Warren St,40.6843549,-73.98901629,35.0,,Brooklyn,11217,15.43
617,3390.0,E 109 St & 3 Ave,40.79329668,-73.9432083,,East Harlem,Manhattan,10029,14.85
618,3246.0,Montague St & Clinton St,40.694281141397326,-73.99230033159256,49.0,,Brooklyn,11201,80.11
619,3317.0,10 St & 5 Ave,40.6686273,-73.98700053,24.0,Park Slope,,11215,61.42
620,3333.0,Columbia St & Lorraine St,40.6747055,-74.0075572,37.0,,,11231,7.16
621,3373.0,3 St & 3 Ave,40.6750705,-73.98775226,79.0,,Brooklyn,11215,15.32
622,3416.0,7 Ave & Park Pl,40.6776147,-73.97324283,25.0,Park Slope,,11217,90.96
623,3398.0,Smith St & 9 St,40.6746957,-73.99785768,23.0,,Brooklyn,11231,13.28
624,3407.0,Union St & Nevins St,40.67909799721684,-73.98765474557877,35.0,,Brooklyn,11215,8.7
625,3404.0,7 St & 5 Ave,40.6704922,-73.98541675,27.0,Park Slope,,11215,48.76
626,3403.0,4 Ave & 9 St,40.6705135,-73.98876585,31.0,Park Slope,,11215,32.56
627,3297.0,6 St & 7 Ave,40.6686627,-73.97988067,21.0,Park Slope,,11215,112.24
628,3349.0,Grand Army Plaza & Plaza St West,40.6729679,-73.97087984,39.0,Park Slope,,11217,136.73
629,3399.0,7 St & 3 Ave,40.67260298150126,-73.98983001708984,24.0,Park Slope,,11215,16.81
630,3381.0,3 St & Hoyt St,40.6777287,-73.99364123,53.0,,Brooklyn,11231,28.16
631,3401.0,2 Ave & 9 St,40.6724811,-73.99331394,,,Brooklyn,11231,10.28
632,3395.0,Henry St & W 9 St,40.6763744,-74.00324957,19.0,,Brooklyn,11231,10.47
633,3250.0,NYCBS Depot - PIT,40.71690978045965,-73.98383796215057,,Lower East Side,Manhattan,10002,24.55
634,3342.0,Pioneer St & Richards St,40.6777748,-74.0094613,23.0,,Brooklyn,112321,7.93
635,3330.0,Henry St & Bay St,40.6725058,-74.00494695,19.0,,Brooklyn,11231,5.76
636,3324.0,3 Ave & 14 St,40.6685455,-73.99333264,25.0,,Brooklyn,11215,26.89
637,3353.0,Reed St & Van Brunt St,40.6747844,-74.01612847,,,Brooklyn,11231,5.37
638,3438.0,E 76 St & 3 Ave,40.772248537721744,-73.95842134952545,,Manhattan Community Board 8,Manhattan,10021,50.3
639,3326.0,Clinton St & Centre St,40.67434,-74.00194698,21.0,,,11231,9.52
640,3219.0,NYCBS Depot - STY,40.729193,-73.976655,,Manhattan Community Board 6,Manhattan,10009:10010,7.16
641,3245.0,Kiosk in a box Motivate,40.64667789889786,-74.01630342006683,,Sunset Park,,11220,48.15
642,3017.0,NYCBS Depot - FAR,40.751483,-73.996764,,Chelsea District,Manhattan,10119,38.41
643,3367.0,5 Ave & E 103 St,40.7922553,-73.95249933,39.0,East Harlem,Manhattan,10029,39.66
644,3283.0,W 89 St & Columbus Ave,40.7882213,-73.97041561,47.0,Manhattan Community Board 7,Manhattan,10024,107.73
645,3314.0,W 95 St & Broadway,40.7937704,-73.971888,32.0,Manhattan Community Board 7,Manhattan,10025,81.48
646,3289.0,W 90 St & Amsterdam Ave,40.79017948095081,-73.97288918495178,32.0,Manhattan Community Board 7,Manhattan,10024,102.52
647,3440.0,Fulton St & Adams St,40.69241829257847,-73.98949474096298,47.0,,Brooklyn,11231,57.6
648,3240.0,NYCBS Depot BAL - DYR,0.0,0.0,,,,,-1000000
649,3371.0,4 Ave & 2 St,40.674613422475815,-73.98501142859459,,Park Slope,,11215,25.53
650,3239.0,Bressler,40.64653836709648,-74.01658773422241,,Sunset Park,,11220,49.38
651,3253.0,Bike The Branches - Central Branch,40.67280641227746,-73.96886587142944,,,Brooklyn,11238,145.73
652,3252.0,Bike The Branches - Red Hook Branch,40.67534953067412,-74.01002034544945,,,,11231,7.2
653,3254.0,Soissons Landing,40.69231660719192,-74.01486575603485,29.0,Nolan Park,Manhattan,10004,22.52
654,3257.0,Adventures NYC,40.77376867022874,-73.97116988897324,,,Manhattan,10023-5104,69.77
655,3036.0,8D OPS 01,40.68486874759393,-74.02544975280762,,Nolan Park,Manhattan,112321,10.61
656,3040.0,SSP Tech Workshop,40.646678,-74.016263,,Sunset Park,,11220,48.93
657,3266.0,Kiosk in a box Deployment,40.70861098096821,-73.92850399017334,,,Brooklyn,11237,10.56
658,3287.0,W 87 St & West End Ave,40.790261,-73.977131,47.0,Manhattan Community Board 7,Manhattan,10024,76.98
659,3291.0,Riverside Dr & W 91 St,40.7933718,-73.97685115,59.0,Manhattan Community Board 7,Manhattan,10024,76.26
660,3385.0,2 Ave & E 105 St,40.7898175,-73.94296109,,East Harlem,Manhattan,10029,17.75
661,3432.0,Bike in Movie Night | Prospect Park Bandshell,40.662987,-73.976918,,,Brooklyn,11215,151.7
662,3687.0,E 33 St & 1 Ave,40.74322681432173,-73.97449783980846,83.0,Kips Bay,Manhattan,10016,12.45
663,3709.0,W 15 St & 6 Ave,40.738046142482766,-73.99642959237099,50.0,Chelsea District,Manhattan,10011-6832,29.25
664,3494.0,E 115 St & Lexington Ave,40.797911,-73.9423,25.0,East Harlem,Manhattan,10029,23.33
665,3798.0,W 40 St & 5 Ave,40.752269,-73.982079,0.0,Midtown South,Manhattan,10018,73.34
666,3628.0,Lenox Ave & W 117 St,40.8025566,-73.9490782,31.0,East Harlem,Manhattan,10026,24.7
667,3762.0,3 Ave & Carroll St,40.677027,-73.9865,27.0,,Brooklyn,11215,16.4
668,3539.0,W 116 St & Amsterdam Ave,40.8067581,-73.9607082,43.0,Manhattan Community Board 9,Manhattan,10027,137.08
669,3571.0,Bedford Ave & Bergen St,40.676368,-73.952918,24.0,,Brooklyn,11216,86.86
670,3500.0,E 115 St & Madison Ave,40.7989445,-73.944846,31.0,East Harlem,Manhattan,10029,26.97
671,3718.0,E 11 St & Avenue B,40.72746420692392,-73.97950418293476,46.0,East Village,Manhattan,10009,12.12
672,3609.0,Vernon Blvd & 31 Ave,40.7692475,-73.9354504,23.0,Astoria,Queens,11106,9.53
673,3461.0,Murray St & Greenwich St,40.71485150526252,-74.01122331619263,33.0,Tribeca,Manhattan,10007,11.02
674,3757.0,Stagg St & Morgan Ave,40.710681,-73.93372,23.0,,Brooklyn,11206,14.18
675,3707.0,Lexington Ave & E 26 St,40.741459,-73.983293,55.0,Kips Bay,Manhattan,10037,32.99
676,3574.0,Prospect Pl & Underhill Ave,40.6769694,-73.96579,23.0,,Brooklyn,11238,113.87
677,3898.0,E 63 St & 3 Ave,40.763954,-73.9646,57.0,Manhattan Community Board 8,Manhattan,10065,62.79
678,3727.0,Frost St & Meeker Ave,40.71766197083994,-73.94880026578903,38.0,,Brooklyn,11222,16.89
679,3737.0,Stanton St & Norfolk St,40.720747,-73.986274,35.0,Lower East Side,Manhattan,10002,28.93
680,3572.0,34 Ave & 38 St,40.756913,-73.921631,33.0,Sunnyside Gardens,Queens,11101,38.45
681,3788.0,E 12 St & 4 Av,40.73269,-73.98974,,East Village,Manhattan,10003,40.15
682,3740.0,W Broadway & W Houston St,40.726378,-74.000472,50.0,Manhattan Community Board 2,Manhattan,10012,21
683,3783.0,Cliff St & Fulton St,40.70838,-74.00495,65.0,Financial District,Manhattan,10038,17.44
684,3510.0,Adam Clayton Powell Blvd & W 123 St,40.8078316,-73.949373,31.0,Manhattan Community Board 10,Manhattan,10027,26.53
685,3680.0,E 43 St & 5 Ave,40.754120810779256,-73.98025184869766,,Midtown East,Manhattan,10017,66.87
686,3812.0,University Pl & E 14 St,40.734814,-73.992085,61.0,Union Square,Manhattan,10003,38.39
687,3795.0,10 St & 2 Ave,40.671907,-73.993612,19.0,Park Slope,,11215,12.43
688,3558.0,Bergen St & Vanderbilt Ave,40.6794388,-73.9680438,27.0,,Brooklyn,11213,88.52
689,3467.0,W Broadway & Spring St,40.72494672359416,-74.00165855884552,46.0,Manhattan Community Board 2,Manhattan,10012,16.77
690,3603.0,31 Ave & 30 St,40.7647,-73.9240312,21.0,Astoria,Queens,11369,40.98
691,3810.0,Central Park West & W 82 St,40.782593,-73.971211,,,Manhattan,10024,97.54
692,3576.0,Park Pl & Vanderbilt Ave,40.6767,-73.969024,,,Brooklyn,11238,113.6
693,3437.0,Riverside Dr & W 91 St,40.79313480986663,-73.97700369358063,59.0,Manhattan Community Board 7,Manhattan,10024,74.22
694,3580.0,St Johns Pl & Washington Ave,40.6737236,-73.9631611,30.0,,Brooklyn,11238,139.41
695,3837.0,Broadway & Kosciuszko St,40.69329,-73.92852,29.0,,Brooklyn,11221,56.33
696,3903.0,Jefferson Ave & Evergreen Ave,40.68989,-73.91458,17.0,,Brooklyn,11221,45.39
697,3817.0,Withers St & Kingsland Ave,40.71773,-73.94051,18.0,,Brooklyn,11211,31.73
698,3768.0,Waterbury St & Stagg St,40.71019,-73.93734,23.0,,Brooklyn,11211,31.83
699,3711.0,E 13 St & Avenue A,40.72966729392978,-73.98067966103554,62.0,East Village,Manhattan,10009,15.2
700,3725.0,2 Ave & E 72 St,40.7687620293096,-73.95840793848038,55.0,Manhattan Community Board 8,Manhattan,10035,50.04
701,3855.0,Frost St & Debevoise Ave,40.71882,-73.93948,22.0,,Brooklyn,11211,33.17
702,3842.0,Bushwick Ave & Dekalb Ave,40.69502,-73.92825,29.0,,Brooklyn,11221,53.29
703,3611.0,Vernon Blvd & 47 Rd,40.7449067,-73.9534573,31.0,Hunters Point,Queens,11101,15.46
704,3731.0,W 47 St & 6 Ave,40.758397,-73.98255,46.0,Manhattan Community Board 5,Manhattan,10111,55
705,3828.0,Eldert St & Bushwick Ave,40.68652,-73.91321,22.0,,Brooklyn,11207,43.48
706,3686.0,Gansevoort St & Hudson St,40.73944820130404,-74.00507032871246,39.0,West Village,Manhattan,100014,18.2
707,3770.0,Central Ave & Flushing Ave,40.702831,-73.9333,21.0,,Brooklyn,11206,28.32
708,3767.0,Powers St & Olive St,40.71323,-73.93894,19.0,,Brooklyn,11211,35.03
709,3527.0,5 Ave & E 126 St,40.80698,-73.941747,,East Harlem,Manhattan,10035,23.95
710,3549.0,Grand Ave & Bergen St,40.678045,-73.962408,25.0,,Brooklyn,11238,106.37
711,3777.0,Stockholm St & Wilson Ave,40.699304,-73.923044,23.0,,Brooklyn,11221,27.72
712,3514.0,Astoria Park S & Shore Blvd,40.7767,-73.927631,33.0,Astoria,Queens,11105,21.73
713,3699.0,W 50 St & 9 Ave,40.76360467795863,-73.98917958140373,30.0,Theater District,Manhattan,10019,50.43
714,3720.0,Wyckoff St & Bond St,40.68461653897949,-73.98721285164356,,,Brooklyn,11217,16.5
715,3771.0,McKibbin St & Bogart St,40.706237,-73.933871,30.0,,Brooklyn,11206,18.69
716,3641.0,Broadway & W 25 St,40.74286877312112,-73.98918628692627,54.0,Manhattan Community Board 5,Manhattan,10001-7604,40.06
717,3564.0,21 St & 36 Ave,40.7601853,-73.9362726,19.0,Ravenswood,Queens,11106,18.14
718,3831.0,Broadway & Hancock St,40.68663,-73.9168,35.0,,Brooklyn,11221,44.81
719,3637.0,Fulton St & Waverly Ave,40.68323865460341,-73.96599590778351,31.0,,Brooklyn,11238,78.1
720,3721.0,31 St & Newtown Ave,40.7675487799971,-73.9209334552288,37.0,,Queens,11101,44.43
721,3689.0,W 104 St & Amsterdam Ave,40.79904139288298,-73.96649479866028,47.0,Manhattan Community Board 7,Manhattan,10025,104.06
722,3820.0,Willoughby Ave & Myrtle Ave,40.69757,-73.93098,19.0,,Brooklyn,11221,60.9
723,3858.0,Kent St & McGuinness Blvd,40.73124,-73.95161,20.0,,Brooklyn,11222,13.5
724,3734.0,E 58 St &  1 Ave (NW Corner),40.759125,-73.962658,,Manhattan Community Board 6,Manhattan,10022,55.13
725,3472.0,W 15 St & 10 Ave,40.74275382865903,-74.00747358798981,39.0,Chelsea District,Manhattan,10019,10.97
726,3562.0,Classon Ave & St Marks Ave,40.6765198,-73.9596082,27.0,,Brooklyn,11238,111.38
727,3671.0,E 81 St & 2 Ave,40.77477944895728,-73.95427465438843,37.0,Manhattan Community Board 8,Manhattan,10028,55.08
728,3537.0,Carlton Ave & Dean St,40.6809741,-73.9710097,29.0,,Brooklyn,11238,65.13
729,3778.0,Irving Ave & DeKalb Ave,40.7027,-73.92095,27.0,,Brooklyn,11237,39.78
730,3570.0,35 Ave & 37 St,40.7557327,-73.9236611,31.0,,Queens,11101,38.92
731,3662.0,31 Ave & Steinway St,40.761293897289086,-73.916916847229,27.0,,Queens,11369,66.36
732,3799.0,6 Ave & W 34 St,40.74964,-73.98805,67.0,Herald Square,Manhattan,10019,44.68
733,3546.0,Pacific St & Classon Ave,40.6791944,-73.9587903,21.0,,Brooklyn,11238,86.66
734,3892.0,38 Ave & 29 St,40.75473,-73.93367,19.0,Ravenswood,Queens,11101,41.77
735,3547.0,Broadway & Moylan Pl,40.8143256,-73.9590255,41.0,Manhattanville,Manhattan,10115,48.13
736,3862.0,Linden St & Knickerbocker Ave,40.69714,-73.91566,18.0,,Brooklyn,11237,35.31
737,3526.0,31 St & 23 Ave,40.7747878,-73.9125551,27.0,Steinway,Queens,11105,65.95
738,3453.0,Devoe St & Lorimer St,40.71335226222875,-73.9491033554077,19.0,,Brooklyn,11211,26.76
739,3656.0,E 2 St & Avenue A,40.72307749068673,-73.98583620786667,46.0,East Village,Manhattan,10009,28.66
740,3693.0,N 11 St & Kent Ave,40.72248188638219,-73.95921930670738,27.0,,Brooklyn,11249,14.66
741,3744.0,1 Ave & E 5 St,40.725864,-73.986389,,East Village,Manhattan,10003,27.81
742,3884.0,Centre St & Seneca Ave,40.69969,-73.9022,23.0,Ridgewood,Queens County,11385,78.54
743,3850.0,Jefferson St & Cypress Ave,40.70907,-73.92157,25.0,,Brooklyn,11237,25.14
744,3585.0,Union St & Bedford Ave,40.6691783,-73.9554162,24.0,,Brooklyn,11225,137.77
745,3759.0,Irving Ave & Jefferson St,40.70538,-73.92535,19.0,,Brooklyn,11237,25.01
746,3852.0,Stewart Ave & Johnson Ave,40.70869,-73.92587,17.0,,Brooklyn,11237,13.37
747,3552.0,W 113 St & Broadway,40.805973,-73.964928,39.0,Manhattan Community Board 9,Manhattan,10025,119.32
748,3790.0,Henry St & Middagh St,40.7003,-73.991581,37.0,Brooklyn Heights,,11201,55.52
749,3772.0,Devoe St & Morgan Ave,40.713811,-73.93515,19.0,,Brooklyn,11211,18.13
750,3869.0,Van Buren St & Broadway,40.692,-73.92617,24.0,,Brooklyn,11221,57.85
751,3523.0,24 Ave & 29 St,40.7729,-73.916142,45.0,,Queens,11102,38.03
752,3553.0,Frederick Douglass Blvd & W 112 St,40.801694,-73.957145,37.0,Manhattan Community Board 10,Manhattan,10026,45.16
753,3691.0,28 Ave & 44 St,40.76408932350688,-73.91065120697021,19.0,,Queens,11103,73.38
754,3521.0,Lenox Ave & W 111 St,40.7987859,-73.9523,36.0,Manhattan Community Board 10,Manhattan,10037,24.9
755,3716.0,40 Ave & Crescent St,40.7535992020056,-73.93795609474182,23.0,Ravenswood,Queens,11101,35.97
756,3756.0,White St & Moore St,40.704508,-73.9351,21.0,,Brooklyn,11206,17.88
757,3789.0,Fulton St & Irving Pl,40.68186,-73.959432,31.0,,Brooklyn,11207,68.67
758,3815.0,E 51 St & 2 Ave,40.755293,-73.967641,41.0,Turtle Bay,Manhattan,10022,28.84
759,3516.0,31 St & Astoria Blvd,40.7699176,-73.9184057,31.0,,Queens,11102,37.68
760,3463.0,E 16 St & Irving Pl,40.735367055605394,-73.98797392845154,79.0,Union Square,Manhattan,10003,37.37
761,3782.0,Brooklyn Bridge Park - Pier 2,40.698458,-73.997178,31.0,,Brooklyn,11201,6.55
762,3780.0,Wyckoff Av & Stanhope St,40.703545,-73.917775,22.0,,Brooklyn,11237,47.8
763,3761.0,Cedar St & Myrtle Ave,40.697842,-73.926241,27.0,,Brooklyn,11221,46.12
764,3822.0,Bushwick Ave & Forrest St,40.70076,-73.93641,20.0,,Brooklyn,11206,49.06
765,3318.0,2 Ave & E 96 St,40.7839636,-73.9471673,45.0,Manhattan Community Board 8,Manhattan,10035,16.29
766,3714.0,Division Ave & Hooper St,40.70684203101325,-73.9544353965357,61.0,,Brooklyn,11211,36.53
767,3556.0,24 St & 41 Ave,40.7527085,-73.9397405,19.0,Queensbridge,Queens,11101,28.69
768,3598.0,Newton Rd & 44 St,40.7595701,-73.9142678,19.0,,Queens,11103,63.24
769,3498.0,Pleasant Ave & E 120 St,40.7974772,-73.9311847,21.0,East Harlem,Manhattan,10035,10.1
770,3758.0,George St & Wilson Ave,40.702997,-73.92997,19.0,,Brooklyn,11237,40.5
771,3739.0,Perry St & Greenwich Ave,40.735918,-74.000939,37.0,West Village,Manhattan,10014,23.42
772,3592.0,Crescent St & Broadway,40.7633589,-73.9286471,19.0,,Queens,11106,31.49
773,3893.0,Rockaway Ave & Bainbridge St,40.68319988172761,-73.91166642308235,25.0,,Brooklyn,11236,67.9
774,3517.0,31 St & Hoyt Ave N,40.7711528,-73.9170074,35.0,Steinway,Queens,11101,34.44
775,3452.0,Bayard St & Leonard St,40.71915571696044,-73.94885390996933,43.0,,Brooklyn,11222,13.97
776,3515.0,24 Ave & 26 St,40.774591,-73.918544,19.0,,Queens,11105,35.07
777,3860.0,Wilson Ave & Troutman St,40.70166,-73.92754,26.0,,Brooklyn,11237,54.78
778,3531.0,Frederick Douglass Blvd & W 129 St,40.8125511,-73.9492286,27.0,,Manhattan,10027,31.57
779,3857.0,Engert Ave & McGuinness Blvd,40.72158,-73.94546,19.0,,Brooklyn,11222,18.91
780,3579.0,Sterling Pl & Bedford Ave,40.672695,-73.954131,25.0,,Brooklyn,11216,111.59
781,3528.0,Steinway St & 23 Ave,40.7713937,-73.9077436,21.0,Steinway,Queens,11105,56.89
782,3870.0,Melrose St & Broadway,40.697481,-73.935877,20.0,,Brooklyn,11206,67.91
783,3885.0,Onderdonk Ave & Gates Ave,40.70413,-73.90737,19.0,Ridgewood,Queens County,11385,87.29
784,3584.0,Eastern Pkwy & Franklin Ave,40.6707767,-73.9576801,42.0,,Brooklyn,11213,135.84
785,3832.0,Central Ave & Weirfield St,40.69055,-73.91181,21.0,,Brooklyn,11221,37.82
786,3830.0,Halsey St & Evergreen Ave,40.68858,-73.91227,22.0,,Brooklyn,11207,37.59
787,3604.0,Rogers Ave & Sterling St,40.6630619,-73.9538746,17.0,,Brooklyn,11225,66.68
788,3715.0,Driggs Ave & N 9 St,40.71816969454208,-73.95520135760307,31.0,,Brooklyn,11211,16.98
789,3658.0,W 18 St & 9 Ave,40.7435337324616,-74.00367558002472,27.0,Chelsea,Manhattan,10011,14.96
790,3454.0,Leonard St & Maujer St,40.7103685423523,-73.94705951213837,24.0,,Brooklyn,11222,38.88
791,3508.0,St Nicholas Ave & Manhattan Ave,40.809725,-73.953149,31.0,Manhattan Community Board 10,Manhattan,10027,28.46
792,3844.0,Myrtle Ave & Linden St,40.69943,-73.91337,25.0,,Brooklyn,11237,55.37
793,3775.0,Suydam St & Knickerbocker Ave,40.702013,-73.923769,27.0,,Brooklyn,11237,28.09
794,3575.0,Crescent St & 34 Ave,40.76108,-73.930562,27.0,Ravenswood,Queens,11106,28.14
795,3891.0,Irving Ave & Palmetto St,40.698,-73.9127,20.0,,Brooklyn,11237,48.22
796,3599.0,Franklin Ave & Empire Blvd,40.66314,-73.9605695,,,Brooklyn,11225,76.79
797,3581.0,Underhill Ave & Lincoln Pl,40.6740123,-73.9671457,27.0,,Brooklyn,11238,140.34
798,3908.0,Battery Pl & Greenwich St,40.70463,-74.01507,,Financial District,Manhattan,10275,11.73
799,3486.0,Schermerhorn St & Bond St,40.688417427540834,-73.98451656103134,40.0,Downtown Brooklyn,,11217,41.49
800,3541.0,Amsterdam Ave & W 125 St,40.813358,-73.956461,39.0,Manhattanville,Manhattan,10027-4840,25.83
801,3583.0,Eastern Pkwy & Washington Ave,40.6716493,-73.9631145,31.0,,Brooklyn,11238,155.48
802,3615.0,44 Dr & 21 St,40.748,-73.9460927,,Court Square,Queens,11101,16.29
803,3495.0,E 114 St & 1 Ave,40.7945663,-73.9362541,26.0,East Harlem,Manhattan,10029,8.42
804,3561.0,37 Ave & 35 St,40.7531106,-73.9279917,26.0,,Queens,11101,25.81
805,3749.0,Lexington Ave & E 36 St,40.7475739589548,-73.9788007736206,0.0,Murray Hill,Manhattan,10037,58.66
806,3497.0,Pleasant Ave & E 116 St,40.7949879,-73.9333349,0.0,East Harlem,Manhattan,10035,10.1
807,3712.0,W 35 St & Dyer Ave,40.754691750226016,-73.99740189313889,41.0,Garment District,Manhattan,10001,23.64
808,3804.0,Front St & Jay St,40.702461,-73.986842,24.0,,Brooklyn,11201-1832,22.44
809,3629.0,Adam Clayton Powell Blvd & W 126 St,40.80949534777948,-73.94776493310928,33.0,Manhattan Community Board 10,Manhattan,10027,27.42
810,3845.0,Irving Ave & Harman St,40.70108,-73.9179,21.0,,Brooklyn,11237,36.83
811,3589.0,Broadway & 12 St,40.7668,-73.9347774,31.0,Astoria,Queens,11373,12.68
812,3887.0,Flushing Ave & Woodward Ave,40.71246,-73.91873,21.0,Ridgewood,Queens County,11385,25.42
813,3865.0,Knickerbocker Ave & Cooper St,40.69081,-73.90448,24.0,,Brooklyn,11207,60.37
814,3853.0,Harrison Pl & Porter Ave,40.70686,-73.92851,20.0,,Brooklyn,11237,20.23
815,3849.0,Suydam St & St. Nicholas Ave,40.70636,-73.91945,17.0,,Brooklyn,11237,47.58
816,3843.0,Myrtle Ave & Grove St,40.69905,-73.91516,23.0,,Brooklyn,11237,46.13
817,3728.0,Pierrepont St & Monroe Pl,40.69535693320225,-73.99344027042389,24.0,Brooklyn Heights,,11201,86.5
818,3879.0,Broadway & Madison St,40.68822,-73.91966,25.0,,Brooklyn,11221,50.71
819,3708.0,W 13 St & 5 Ave,40.735445,-73.99431,29.0,West Village,Manhattan,10011,33.35
820,3502.0,Lexington Ave & E 111 St,40.7954121,-73.9441232,29.0,East Harlem,Manhattan,10037,15.66
821,3856.0,Kingsland Ave & Nassau Ave,40.72577,-73.94173,25.0,,Brooklyn,11222,24.72
822,3760.0,Willoughby Ave & Wyckoff Ave,40.705614,-73.92153,23.0,,Brooklyn,11237,33.89
823,3872.0,Hancock St & Wyckoff Ave,40.6972,-73.90674,19.0,Ridgewood,Queens County,11385,66.18
824,3457.0,E 58 St & Madison Ave,40.76302594280519,-73.97209525108337,46.0,Manhattan Community Board 5,Manhattan,10022,47.45
825,3818.0,Calyer St & Jewel St,40.72984,-73.94839,40.0,,Brooklyn,11222,10.4
826,3591.0,21 St & 31 Dr,40.7659,-73.930819,21.0,Astoria,Queens,11106,16.51
827,3668.0,Leonard St & Nassau Ave,40.7239567849954,-73.94984364509583,26.0,,Brooklyn,11222,15.74
828,3606.0,49 Ave & 21 St,40.74252,-73.948852,21.0,,Queens,11101,20.73
829,3618.0,27 St & Hunter St,40.7485,-73.941275,33.0,Court Square,Queens,11101,14.21
830,3697.0,W 64 St & Thelonious Monk Circle,40.77515953434235,-73.98918695747852,43.0,Manhattan Community Board 7,Manhattan,10069,21.51
831,3882.0,Norman St & Wyckoff Ave,40.69517,-73.90311,15.0,Ridgewood,Queens County,11385,73.4
832,3296.0,E 93 St & 2 Ave,40.782454175279874,-73.9489196240902,73.0,Carnegie Hill,Manhattan,10128,27.44
833,3496.0,1 Ave & E 110 St,40.7923272,-73.9383,25.0,East Harlem,Manhattan,10029,8.79
834,3814.0,E 56 St & Madison Ave,40.761573,-73.972628,23.0,Manhattan Community Board 5,Manhattan,10022,51.39
835,3616.0,Steinway St & 28 Ave,40.7656251,-73.9136695,25.0,Steinway,Queens,11103,73.96
836,3745.0,36 Ave & 31 St,40.75651272984955,-73.92957486212252,27.0,Ravenswood,Queens,11106,43.54
837,3654.0,31 St & Northern Blvd,40.75186951421875,-73.93349289894103,35.0,,Queens,11101,25.3
838,3593.0,31 St & Broadway,40.761584,-73.925921,35.0,,Queens,11106,48.37
839,3690.0,Park Pl & Church St,40.71334184275907,-74.00935515761375,36.0,Financial District,Manhattan,10279,29.21
840,3763.0,Wyckoff Av & Jefferson St,40.707165,-73.923711,27.0,,Brooklyn,11385,17.92
841,3673.0,Dean St & Franklin Ave,40.67759206937376,-73.955637216568,21.0,,Brooklyn,11238,88.26
842,3774.0,Knickerbocker Ave & George St,40.704425,-73.92836,23.0,,Brooklyn,11237,28.21
843,3509.0,Lenox Ave & W 115 St,40.8011939,-73.9500739,31.0,Manhattan Community Board 10,Manhattan,10037,25
844,3499.0,2 Ave & E 122 St,40.8006721,-73.9349,25.0,East Harlem,Manhattan,10035,11.92
845,3848.0,Suydam St & Broadway,40.69544,-73.93223,32.0,,Brooklyn,11221,61.35
846,3582.0,Lincoln Pl & Classon Ave,40.6721683,-73.9609,28.0,,Brooklyn,11238,141.46
847,3838.0,Bushwick Ave & Harman St,40.69356,-73.92524,25.0,,Brooklyn,11221,58.49
848,3896.0,Madison St & Seneca Ave,40.70183,-73.90625,22.0,Ridgewood,Queens County,11385,84.5
849,3491.0,E 118 St & 1 Ave,40.79747,-73.93504,24.0,East Harlem,Manhattan,10035,11.41
850,3674.0,Jay St & York St,40.70140317257725,-73.98672670125961,27.0,,Brooklyn,11201-1832,39.8
851,3534.0,Frederick Douglass Blvd & W 117 St,40.805159,-73.954692,39.0,Manhattan Community Board 10,Manhattan,10026,36.03
852,3840.0,Putnam Ave & Wyckoff Ave,40.69811,-73.90904,24.0,,Brooklyn,11237,63.47
853,3764.0,Bushwick Ave & McKibbin St,40.705517,-73.93936,21.0,,Brooklyn,11206,17.26
854,3630.0,Frederick Douglass Blvd & W 115 St,40.8038654,-73.9559308,33.0,Manhattan Community Board 10,Manhattan,10026,39.81
855,3535.0,Mt Morris Park W & W 120 St,40.804038,-73.945925,27.0,Manhattan Community Board 11,Manhattan,10027,23.13
856,3532.0,Ditmars Blvd & 19 St,40.78145,-73.9183302,27.0,,Queens,11105,33.18
857,3755.0,DeKalb Ave & Franklin Ave,40.69064807082943,-73.95746178925037,19.0,Fort Greene,,11205,55.55
858,3518.0,Lenox Ave & W 126 St,40.808442,-73.9452087,34.0,Manhattan Community Board 10,Manhattan,10037,26.53
859,3369.0,E 82 St & East End Ave,40.7724607,-73.9468208,29.0,Manhattan Community Board 8,Manhattan,10028,38.31
860,3746.0,6 Ave & Broome St,40.724308321602166,-74.00473035871983,48.0,Hudson Square,Manhattan,10014-3621,14.99
861,3613.0,Center Blvd & 48 Ave,40.745038,-73.957539,27.0,Hunters Point,Queens,11109,4.2
862,3536.0,W 116 St & Broadway,40.8082,-73.9641,43.0,Manhattan Community Board 9,Manhattan,10027,132.55
863,3648.0,Flushing Ave & Vanderbilt Ave,40.69795031569544,-73.97077560424805,25.0,,Brooklyn,11205,16.62
864,3299.0,E 98 St & Park Ave,40.78813,-73.95206,25.0,,Manhattan,10129,68.27
865,3833.0,Madison St & Evergreen Ave,40.69122,-73.91693,18.0,,Brooklyn,11221,40.04
866,3529.0,Lenox Ave & W 130 St,40.8107922,-73.9430681,25.0,Manhattan Community Board 10,Manhattan,10027,24.57
867,3505.0,Lexington Ave & E 127 St,40.805726,-73.936322,33.0,East Harlem,Manhattan,10037,16.8
868,3506.0,Lexington Ave & E 120 St,40.8013066,-73.9398167,29.0,East Harlem,Manhattan,10037,20.46
869,3493.0,E 118 St & 3 Ave,40.799139,-73.9389152,31.0,East Harlem,Manhattan,10035,16.92
870,3612.0,30 Ave & 21 St,40.7703743,-73.9286078,15.0,Astoria,Queens,11102,17.27
871,3723.0,Cadman Plaza E & Johnson St,40.69531727766904,-73.99015724658966,,Downtown Brooklyn,,11201,79.16
872,3851.0,Metropolitan Ave & Stewart Ave,40.71401,-73.92793,20.0,,Brooklyn,11415,12.25
873,3811.0,27 Ave & 3 St,40.77485,-73.9342,19.0,Astoria,Queens,11102,17.57
874,3664.0,North Moore St & Greenwich St,40.72019521437465,-74.0103006362915,29.0,Tribeca,Manhattan,10013,13.42
875,3864.0,Central Ave & Covert St,40.68929,-73.90951,30.0,,Brooklyn,11207,46.71
876,3621.0,27 Ave & 9 St,40.7739825,-73.9309134,40.0,Astoria,Queens,11102,33.38
877,3911.0,Wyckoff St & Nevins St,40.683426,-73.984275,22.0,Boerum Hill,,11217,19.57
878,3619.0,Newtown Ave & 23 St,40.7713615,-73.9246145,27.0,Astoria,Queens,11106,35.42
879,3890.0,Grove St & Broadway,40.69047,-73.923511,31.0,,Brooklyn,11221,54.4
880,3704.0,47 Ave & Skillman Ave,40.7437524099784,-73.94176483154297,19.0,Sunnyside,Queens,11101,14.32
881,3525.0,23 Ave & 27 St,40.776165,-73.9153175,21.0,Steinway,Queens,11105,42.86
882,3766.0,Sharon St & Olive St,40.715353,-73.93856,24.0,,Brooklyn,11211,28.11
883,3900.0,Morgan Ave & Lombardy St,40.72226,-73.93889,30.0,,Brooklyn,11222,37.73
884,3520.0,Adam Clayton Powell Blvd & W 118 St,40.804372,-73.951475,27.0,Manhattan Community Board 10,Manhattan,10026,28.66
885,3545.0,Broadway & W 122 St,40.8120562,-73.9612547,33.0,Manhattan Community Board 9,Manhattan,10115,88.43
886,3542.0,Amsterdam Ave & W 119 St,40.8086249,-73.9596214,29.0,Manhattan Community Board 9,Manhattan,10115,116.85
887,3567.0,11 St & 35 Ave,40.7627442,-73.9391141,,Queensbridge,Queens,11106,15.72
888,3623.0,W 120 St & Claremont Ave,40.8109494,-73.9634,39.0,Manhattan Community Board 9,Manhattan,10027,115.24
889,3902.0,Fairview Ave & Linden St,40.70694,-73.90632,19.0,Ridgewood,Queens County,11385,104.68
890,3597.0,43 St & Broadway,40.7577284,-73.9166368,25.0,Sunnyside Gardens,Queens,11101,53.15
891,3501.0,E 118 St & Madison Ave,40.8014866,-73.9442507,29.0,East Harlem,Manhattan,10035,29.48
892,3544.0,Underhill Ave & Pacific St,40.6804836,-73.9646795,27.0,,Brooklyn,11238,84.82
893,3888.0,Woodward Ave & Harman St,40.70793,-73.91092,19.0,Ridgewood,Queens County,11385,100.58
894,3530.0,Crescent St & Ditmars Blvd,40.7787185,-73.9145645,19.0,Steinway,Queens,11102,48.17
895,3733.0,Avenue C & E 18 St,40.730563,-73.973984,46.0,Manhattan Community Board 6,Manhattan,10009:10010,1.62
896,3492.0,E 118 St & Park Ave,40.8005385,-73.9419949,27.0,East Harlem,Manhattan,10035,27.02
897,3578.0,Park Pl & Franklin Ave,40.6741806,-73.9564947,21.0,,Brooklyn,11216,109.04
898,3765.0,Bushwick Ave & Stagg St,40.709897,-73.94008,21.0,,Brooklyn,11211,44.86
899,3859.0,Lorimer St & Calyer St,40.72795,-73.95414,,,Brooklyn,11222,22.46
900,3595.0,35 St & Broadway,40.760339,-73.9222427,18.0,,Queens,11106,52.2
901,3573.0,35 St & 34 Ave,40.7580583,-73.9242751,25.0,Sunnyside Gardens,Queens,11106,39.01
902,3490.0,E 116 St & 2 Ave,40.796879,-73.937261,31.0,East Harlem,Manhattan,10035,13.1
903,3910.0,Greene Ave & Grandview Ave,40.709697,-73.907856,17.0,Ridgewood,Queens County,11237,112.4
904,3586.0,34 Ave & 13 St,40.7638753,-73.9364848,19.0,Ravenswood,Queens,11101,15
905,3881.0,12 Ave & W 125 St,40.818299,-73.960405,39.0,Manhattanville,Manhattan,10027,12.96
906,3886.0,Menahan St & Onderdonk Ave,40.70553,-73.9096,20.0,Ridgewood,Queens County,11385,91.95
907,3478.0,2 Ave & 36 St,40.65708866668485,-74.00870203971863,43.0,,,11232,7.98
908,3507.0,Park Ave & E 124 St,40.8045555,-73.9396861,36.0,East Harlem,Manhattan,10037,21.91
909,3469.0,India St & West St,40.73181401720966,-73.95995020866394,,,Brooklyn,11222,10.41
910,3568.0,34 St & 35 Ave,40.7569332,-73.9262231,21.0,,Queens,11106,38.99
911,3610.0,Vernon Blvd & 30 Rd,40.770845,-73.934171,33.0,Astoria,Queens,11106,9.79
912,3524.0,19 St & 24 Ave,40.7774552,-73.9225403,23.0,Astoria,Queens,11105,54.3
913,3540.0,Morningside Ave & W 123 St,40.81,-73.9551508,35.0,Manhattan Community Board 9,Manhattan,10027,30.33
914,3883.0,Harman St & Seneca Ave,40.70577,-73.91292,19.0,Ridgewood,Queens County,11385,82
915,3824.0,Van Sinderen Ave & Truxton St,40.6786,-73.90369,23.0,,Brooklyn,11207,82.9
916,3793.0,Stuyvesant Walk & 1 Av Loop,40.732339777151054,-73.97898383438587,,,Manhattan,10009,12.55
917,3779.0,Hart St & Wyckoff Ave,40.704876,-73.919911,24.0,,Brooklyn,11237,49.1
918,3819.0,Green St & McGuinness Blvd,40.73396,-73.95204,20.0,,Brooklyn,11222,12.36
919,3877.0,Madison St & Forest Ave,40.70555,-73.90245,25.0,Ridgewood,Queens County,11385,109.09
920,3841.0,Menahan St & Central Ave,40.69543,-73.9196,25.0,,Brooklyn,11221,36.96
921,3605.0,31 Ave & Crescent St,40.7658346,-73.9265474,21.0,Astoria,Queens,11369,30.91
922,3863.0,Central Ave & Woodbine St,40.69296,-73.91605,18.0,,Brooklyn,11221,34.7
923,3565.0,36 Ave & 10 St,40.7614376,-73.9411265,19.0,Ravenswood,Queens,11106,14.97
924,3873.0,Madison St & Cypress Ave,40.70068,-73.90742,17.0,Ridgewood,Queens County,11385,76.01
925,3456.0,Jackson St & Leonard St,40.71638031973561,-73.94821286201477,22.0,,Brooklyn,11211,20.93
926,3899.0,Manhattan Av & Leonard St,40.72084,-73.94844,18.0,,Brooklyn,11222,15.65
927,3596.0,Sullivan Pl & Bedford Ave,40.6642406,-73.9574686,19.0,,Brooklyn,11225,76.16
928,3649.0,W 129 St & Convent Ave,40.814394437915816,-73.95324736833572,30.0,Manhattanville,Manhattan,10027,56.29
929,3617.0,28 Ave & 35 St,40.7671,-73.9169858,27.0,,Queens,11101,55.66
930,3513.0,21 St & Hoyt Ave S,40.774645,-73.923706,33.0,Astoria,Queens,11106,28.37
931,3614.0,Crescent St & 30 Ave,40.768692,-73.9249574,23.0,Astoria,Queens,11102,28.56
932,3522.0,37 St & 24 Ave,40.7701477,-73.9120938,19.0,Steinway,Queens,11101,61.49
933,3352.0,Sigourney St & Columbia St,40.67267243410948,-74.0087952464819,21.0,,Brooklyn,112321,7.21
934,3861.0,Menahan St & Wyckoff Ave,40.70113,-73.91422,20.0,,Brooklyn,11237,59.07
935,3543.0,Morningside Dr & Amsterdam Ave,40.81028506306003,-73.95736455917358,35.0,Manhattan Community Board 9,Manhattan,10027,88.72
936,3563.0,28 St & 36 Ave,40.757186,-73.932719,29.0,Court Square,Queens,11106,36.66
937,3569.0,Franklin Ave & St Marks Ave,40.6758324,-73.9561677,29.0,,Brooklyn,11238,97.53
938,3901.0,Stanhope St & Fairview Ave,40.70998,-73.91116,17.0,Ridgewood,Queens County,11237,104.8
939,3602.0,31 Ave & 34 St,40.763154,-73.920827,23.0,,Queens,11369,48.01
940,3555.0,28 St & 41 Ave,40.751047,-73.93797,27.0,Court Square,Queens,11101,32.19
941,3503.0,Madison Ave & E 120 St,40.80295,-73.942954,30.0,East Harlem,Manhattan,10037,28.76
942,3587.0,Carroll St & Washington Ave,40.6686744,-73.9618148,27.0,,Brooklyn,11225,127.99
943,3504.0,E 123 St & Lexington Ave,40.8029263,-73.9379,27.0,East Harlem,Manhattan,10035,18.27
944,3781.0,Greene Av & Myrtle Av,40.698568,-73.918877,30.0,,Brooklyn,11237,31.02
945,3868.0,Knickerbocker Ave & Halsey St,40.693,-73.90824,19.0,,Brooklyn,11237,66
946,3803.0,Bedford Ave & Montgomery St,40.665816,-73.956934,27.0,,Brooklyn,11225,94.66
947,3835.0,Knickerbocker Ave & Hancock St,40.69385,-73.90974,22.0,,Brooklyn,11221,60.3
948,3726.0,Center Blvd & 51 Ave,40.74336608027021,-73.95960688591003,23.0,Hunters Point,Queens,11109,0.99
949,3511.0,Adam Clayton Powell Blvd & W 115 St,40.802535,-73.9532423,22.0,Manhattan Community Board 10,Manhattan,10026,31.73
950,3590.0,Carroll St & Franklin Ave,40.6679411,-73.9588,19.0,,Brooklyn,11225,113.59
951,3538.0,W 110 St & Amsterdam Ave,40.802692,-73.96295,45.0,Manhattan Community Board 9,Manhattan,10025,108.98
952,3676.0,Van Brunt St & Van Dyke St,40.6758329439129,-74.01472628116608,24.0,,Brooklyn,112321,6.68
953,3601.0,Sterling St & Bedford Ave,40.6627059,-73.9569115,19.0,,Brooklyn,11225,66.85
954,3827.0,Halsey St & Broadway,40.68565,-73.91564,20.0,,Brooklyn,11233,44.04
955,3566.0,Crescent St & 35 Ave,40.7596276,-73.9321455,25.0,Ravenswood,Queens,11106,26.96
956,3608.0,5 St & 51 Ave,40.7423737,-73.9566,21.0,Hunters Point,Queens,11109,8.35
957,3874.0,Menahan St & Seneca Ave,40.70461,-73.91054,16.0,Ridgewood,Queens County,11385,86.57
958,3533.0,St. Nicholas Ave & W 126 St,40.8114323,-73.9518776,34.0,Manhattan Community Board 10,Manhattan,10040,33.35
959,3773.0,Knickerbocker Ave & Thames St,40.70539,-73.92976,20.0,,Brooklyn,11237,26
960,3829.0,Central Ave & Decatur St,40.6882,-73.90798,24.0,,Brooklyn,11207,46.81
961,3588.0,Vernon Blvd & 10 St,40.7671863,-73.9373554,41.0,Ravenswood,Queens,11106,9.74
962,3821.0,Evergreen Ave & Noll St,40.70106,-73.93318,25.0,,Brooklyn,11206,51.86
963,3646.0,35 Ave & 10 St,40.76315481910373,-73.93985509872437,26.0,Ravenswood,Queens,11101,18.75
964,3816.0,Metropolitan Ave & Vandervoort Ave,40.71429,-73.93323,24.0,,Brooklyn,11211,11.12
965,3776.0,Central Ave & Starr Street,40.700003,-73.92834,23.0,,Brooklyn,11221,62.22
966,3441.0,10 Hudson Yards,40.752957,-74.00264,,Chelsea District,Manhattan,10019,11.5
967,3836.0,Bushwick Ave & Linden St,40.69146,-73.92146,29.0,,Brooklyn,11221,52.04
968,3577.0,34 Ave & 21 St,40.7628138,-73.9342862,23.0,Ravenswood,Queens,11101,17.55
969,3846.0,Central Ave & Himrod St,40.69676,-73.92302,25.0,,Brooklyn,11221,50.25
970,3622.0,E 128 St & Madison Ave,40.80756,-73.939182,23.0,East Harlem,Manhattan,10035,21.16
971,3847.0,Cedar St & Evergreen Ave,40.69671,-73.92807,25.0,,Brooklyn,11221,48.45
972,3661.0,Montgomery St & Franklin Ave,40.666439306870814,-73.9605563879013,19.0,,Brooklyn,11225,86.11
973,3551.0,3 Ave & E 112 St,40.795508,-73.941606,23.0,East Harlem,Manhattan,10029,16.74
974,3823.0,Beaver St & Fayette St,40.70099,-73.93921,30.0,,Brooklyn,11206,36.12
975,3866.0,Wilson Ave & Moffat St,40.68906,-73.90506,32.0,,Brooklyn,11207,57.17
976,3769.0,White St & Johnson Ave,40.707174,-73.93581,23.0,,Brooklyn,11206,18.44
977,3647.0,48 Ave & 30 Pl,40.74128309355993,-73.93725872039794,,Sunnyside,Queens,11101,13.83
978,3724.0,7 Ave & Central Park South,40.7667405590595,-73.9790689945221,39.0,Manhattan Community Board 5,Manhattan,10019,77.33
979,3607.0,31 Ave & 14 St,40.7682,-73.9322662,19.0,Astoria,Queens,11106,13.68
980,3809.0,W 55 St & 6 Ave,40.763189,-73.978434,53.0,Manhattan Community Board 5,Manhattan,10105,60.3
981,3443.0,W 52 St & 6 Ave,40.76132983124814,-73.97982001304626,41.0,Theater District,Manhattan,,63.23
982,3785.0,W 42 St & 6 Ave,40.75492,-73.98455,37.0,Theater District,Manhattan,10019,61.93
983,3477.0,39 St & 2 Ave,40.65539977447831,-74.01062786579132,33.0,,Brooklyn,11232,10.79
984,3834.0,Irving Ave & Halsey St,40.69467,-73.90663,19.0,,Brooklyn,11237,68.86
985,3787.0,Dock 72 Way & Market St,40.69985,-73.97141,22.0,,,11251,0.54
986,3839.0,Putnam Ave & Knickerbocker Ave,40.69545,-73.91164,29.0,,Brooklyn,11237,52.13
987,3559.0,21 St & 38 Ave,40.7576314,-73.9391224,19.0,Ravenswood,Queens,11101,16.64
988,3554.0,Vernon Blvd & 41 Rd,40.7552433,-73.9485678,27.0,Queensbridge,Queens,11101,11.14
989,3876.0,Forest Ave & Summerfield St,40.69922,-73.89795,23.0,Ridgewood,Queens County,11385,81.85
990,3337.0,Dwight St & Van Dyke St,40.67363551341504,-74.01195555925369,23.0,,Brooklyn,11231,6.95
991,3557.0,40 Ave & 9 St,40.75742,-73.945133,19.0,Queensbridge,Queens,11101,12.7
992,3692.0,5 St & Market St,40.6999974843885,-73.97440128028393,39.0,,,11251,9.31
993,3620.0,11 St & 43 Ave,40.7519071,-73.9479119,28.0,,Queens,11101,15.8
994,3907.0,Central Ave & Melrose St,40.70112,-73.93039,17.0,,Brooklyn,11206,56.72
995,3909.0,Madison St & Woodward Ave,40.70408,-73.90408,20.0,,Brooklyn,11237,94.82
996,3871.0,Bushwick Ave & Furman Ave,40.68281,-73.90623,30.0,,Brooklyn,11207,95.08
997,3825.0,Broadway & Furman Ave,40.68139,-73.90756,29.0,,Brooklyn,11207,87.62
998,3854.0,Morgan Ave & Maspeth Ave,40.716657,-73.93637,24.0,,Brooklyn,11222,18.59
999,3826.0,Moffat St & Bushwick,40.68458,-73.90925,18.0,,Brooklyn,11207,69.86
1000,3897.0,Onderdonk Ave & Dekalb Ave,40.70863,-73.91497,17.0,Ridgewood,Queens County,11385,91.69
1001,3878.0,Cypress Ave & George St,40.69812,-73.90271,19.0,Ridgewood,Queens County,11385,73.73
1002,3880.0,Willoughby Ave & Onderdonk Ave,40.7098,-73.91727,27.0,Ridgewood,Queens County,11385,67.55
1003,3895.0,Cypress Ave & Palmetto St,40.70157340873792,-73.90876293182373,25.0,Ridgewood,Queens County,11237,76.27
1004,3867.0,Somers St & Broadway,40.67945,-73.90474,29.0,,Brooklyn,11233,91.5
1005,3875.0,Stephen St & Seneca Ave,40.6988,-73.9007,15.0,Ridgewood,Queens County,11385,77.53
1006,3912.0,MTL-AOS-5.1,40.7903,-73.9597,,,Manhattan,10025,86.2
1007,3905.0,4 Ave & E 12 St,40.732647,-73.99011,27.0,East Village,Manhattan,10003,40.24
1008,3786.0,Division St & Bowery,40.714193,-73.996732,49.0,Manhattan Community Board 3,Manhattan,10002,38.13
1009,3738.0,Delancey St & Eldridge St,40.719383,-73.991479,31.0,Lower East Side,Manhattan,10002,39.64
1010,3736.0,E 12 St & Ave C,40.727243,-73.976831,41.0,East Village,Manhattan,10009,7.62
1011,3917.0,Willoughby St & Ashland Pl,40.69178,-73.97877,31.0,Fort Greene,,11201,35.47
1012,3916.0,Pearl St & Peck Slip,40.708485,-74.002751,45.0,Financial District,Manhattan,10038,15.5
1013,3918.0,Avenue D & E 8 St,40.72387,-73.975767,,East Village,Manhattan,10009,10.41
1014,3913.0,Sands St Gate,40.699569,-73.979827,19.0,,,11251,10.89
1015,3914.0,West End Ave & W 78 St,40.783786,-73.981687,39.0,Manhattan Community Board 7,Manhattan,10024,76.09
1016,3600.0,31 Ave & Steinway St,40.7611488,-73.9170071,27.0,Steinway,Queens,11103,66.57
1017,3808.0,24 St & 41 Ave,40.752474,-73.939991,19.0,Queensbridge,Queens,11101,28.87
1018,3735.0,W 30 St & 10 Ave,40.752694,-74.002353,38.0,Chelsea District,Manhattan,10019,13.79
1019,4093.0,Grand Concourse & E 161 St,40.827115,-73.92272,27.0,,The Bronx,10451,71.29
1020,4048.0,St. Nicholas Ave & W 157 St,40.832314,-73.94102,20.0,Manhattan Community Board 12,Manhattan,10032,145.38
1021,4010.0,W 145 St & Amsterdam Ave,40.825244,-73.947257,24.0,Manhattan Community Board 9,Manhattan,10031,122.03
1022,4188.0,Broadway & W 155 St,40.83299,-73.94592,31.0,Manhattan Community Board 12,Manhattan,10032,120.62
1023,4102.0,Grand Concourse & E 164 St,40.829608,-73.921461,22.0,,The Bronx,10452,82.1
1024,4058.0,Madison Av & E 51 St,40.75863,-73.97513,41.0,Manhattan Community Board 5,Manhattan,10022,68.77
1025,3894.0,8 Ave & W 16 St,40.740983,-74.001702,36.0,Chelsea District,Manhattan,10011,22.41
1026,4156.0,Fulton Ave & St. Paul's Pl,40.83545,-73.90153,19.0,,The Bronx,10456,63.23
1027,4137.0,3 Ave & E 163 St,40.823872,-73.908699,27.0,,The Bronx,10456,48.14
1028,4075.0,Central Park West & W 85 St,40.78476,-73.969862,38.0,Manhattan Community Board 7,Manhattan,10024,111.76
1029,3995.0,5 Ave & E 135 St,40.812191,-73.937838,21.0,East Harlem,Manhattan,10037,11.72
1030,4195.0,E 167 St & Clay Ave,40.83094,-73.91125,30.0,,The Bronx,10456,29.2
1031,3635.0,W 36 St & 9 Ave,40.75462324029105,-73.99516761302948,43.0,Garment District,Manhattan,10018,39.28
1032,4222.0,River Ave & E 151 St,40.822217,-73.928939,27.0,,The Bronx,10452,18.77
1033,3906.0,West St & Liberty St,40.711444,-74.014847,32.0,Battery Park City,Manhattan,10281,11
1034,3935.0,Amsterdam Ave & W 131 St,40.816355,-73.954295,19.0,Manhattanville,Manhattan,10027,55.08
1035,3981.0,Harlem River Dr & W 155 St,40.830476,-73.939929,24.0,,Manhattan,10032,98.4
1036,4164.0,E 174 St & Longfellow Ave,40.836274,-73.884308,20.0,,The Bronx,10460,63.25
1037,4116.0,Gerard Ave & E 164 St,40.830262,-73.923391,19.0,,The Bronx,10452,36.14
1038,4083.0,Walton Ave & E 168 St,40.83649,-73.918316,20.0,,The Bronx,10452,73.84
1039,4017.0,E 138 St & 5 Av,40.81449,-73.936153,22.0,East Harlem,Manhattan,10037:10454,10.24
1040,4065.0,Wadsworth Ave & W 179 St,40.848467,-73.936064,35.0,,Manhattan,10033,184.72
1041,4117.0,Sullivan Pl & Franklin Ave,40.66407983678161,-73.96025128666679,27.0,,Brooklyn,11225,81.75
1042,4090.0,Grand Concourse & E 156 St,40.823429,-73.924689,21.0,,The Bronx,10451:10455,86.52
1043,3813.0,W 20 St & 10 Ave,40.745686,-74.005141,49.0,Chelsea District,Manhattan,10011,9.7
1044,3992.0,W 169 St & Fort Washington Ave,40.8428422,-73.9421253,,Manhattan Community Board 12,Manhattan,10032,170.29
1045,4028.0,Frederick Douglass Blvd & Harlem River Dr,40.830702,-73.936371,19.0,,Manhattan,10039,10.85
1046,3984.0,W 140 St & Riverside Dr,40.824013,-73.954743,23.0,Manhattan Community Board 9,Manhattan,10031,64.2
1047,3927.0,Lenox Ave & W 133 St,40.81296,-73.941878,27.0,,Manhattan,10030,22.41
1048,3929.0,Willis Ave & E 141 St,40.81093,-73.921606,19.0,Mott Haven,The Bronx,10454,28.13
1049,4152.0,Fulton Ave & E 168 St,40.830471,-73.904556,21.0,,The Bronx,10456,80.08
1050,3924.0,Lincoln Ave & E 138 St,40.810893,-73.927311,26.0,Mott Haven,The Bronx,10037:10454,21.35
1051,4004.0,Edgecombe Ave & W 141 St,40.820681,-73.945144,21.0,,Manhattan,10031,28.34
1052,3978.0,Cauldwell Ave & E 161 St,40.82188,-73.907521,18.0,,The Bronx,10456,69.37
1053,4043.0,W 78 St & Amsterdam Ave,40.782535857724106,-73.97908508777618,,Manhattan Community Board 7,Manhattan,10024,76.81
1054,4110.0,Avenue D & E 10 St,40.72506551015475,-73.97515833377838,30.0,East Village,Manhattan,10009,8.33
1055,4125.0,E 161 St & River Ave,40.827883,-73.927111,38.0,,The Bronx,10451:10455,19.06
1056,3999.0,Adam Clayton Powell Blvd & W 138 St,40.81695971032464,-73.9422959089279,23.0,,Manhattan,10030,28.78
1057,3997.0,5 Av & W 139 St,40.815484,-73.935856,20.0,East Harlem,Manhattan,10037,8.26
1058,4000.0,Lenox Ave & W 144 St,40.819783,-73.936521,22.0,,Manhattan,10037,13.38
1059,3934.0,St Nicholas Ave & E 134 St,40.816234,-73.948222,,Manhattanville,Manhattan,10030,38.68
1060,4032.0,E 155 St & Courtlandt Ave,40.82057,-73.917579,19.0,,The Bronx,10455,41.63
1061,4052.0,Amsterdam Ave & W 162 St,40.83618,-73.939789,27.0,Manhattan Community Board 12,Manhattan,10032,162.43
1062,4045.0,West End Ave & W 60 St,40.77237,-73.99005,39.0,Manhattan Community Board 7,Manhattan,100,21.57
1063,3985.0,E 160 St & Tinton Ave,40.820302,-73.903944,22.0,,The Bronx,10456,57.92
1064,3982.0,Bergen Ave & E 152 St,40.817166,-73.914737,21.0,,The Bronx,10455,27.47
1065,3920.0,E 132 St & Madison Ave,40.810224,-73.937195,19.0,East Harlem,Manhattan,10037,10.12
1066,4186.0,E 149 St & Park Ave,40.818154,-73.925294,27.0,,The Bronx,10455,18.89
1067,4094.0,Park Ave & E 162 St,40.825716,-73.915585,21.0,,The Bronx,10451,39.48
1068,3967.0,W 146 St & Broadway,40.826969,-73.949738,30.0,Manhattan Community Board 9,Manhattan,10031,115.58
1069,4120.0,E 39 St & Lexington Ave,40.7494985460252,-73.97729203113158,43.0,Murray Hill,Manhattan,10016,57.45
1070,3963.0,Melrose Ave & E 150 St,40.816827,-73.917338,31.0,,The Bronx,10451,40.22
1071,4068.0,Fort Washington Ave & W 183 St,40.852252,-73.937854,30.0,Manhattan Community Board 12,Manhattan,10033,242.59
1072,4002.0,W 144 St & Adam Clayton Powell Blvd,40.820877,-73.939249,24.0,,Manhattan,10030,29.14
1073,3970.0,Melrose Ave & E 154 St,40.819609,-73.916071,19.0,,The Bronx,10455,28.47
1074,3968.0,Prospect Ave & E 151 St,40.814232,-73.903927,21.0,,The Bronx,10455,38.88
1075,4135.0,Westchester Ave & Longwood Ave,40.819701,-73.901311,23.0,,,10459,69.69
1076,4061.0,Fort Washington Ave & W 173 St,40.84522,-73.940493,24.0,Manhattan Community Board 12,Manhattan,10032,189.05
1077,4001.0,Lenox Ave & W 146 St,40.821111,-73.935971,24.0,,Manhattan,10039,8.62
1078,4072.0,W 48 St & Rockefeller Plaza,40.75793646243674,-73.97960275411606,,Manhattan Community Board 5,Manhattan,10036,62.51
1079,4044.0,8 Ave & W 38 St,40.75461,-73.99177,48.0,Garment District,Manhattan,10018,36.71
1080,3946.0,St Nicholas Ave & W 137 St,40.818477,-73.947568,21.0,Manhattan Community Board 10,Manhattan,10030,42.79
1081,4173.0,Longfellow Ave & E 165 St,40.825322,-73.887729,21.0,,The Bronx,10459,45.04
1082,4062.0,Amsterdam Ave & W 175 St,40.844044,-73.933651,23.0,Manhattan Community Board 12,Manhattan,10033,179.07
1083,4225.0,Clinton St & Tillary St,40.69623297129316,-73.99142056703568,33.0,,Brooklyn,11231,84.56
1084,4210.0,Grand Concourse & E 166 St,40.83196,-73.91956,24.0,,The Bronx,10456,94.63
1085,4066.0,Audobon Ave & W 179 St,40.847305,-73.933291,23.0,,Manhattan,10033,147.91
1086,3942.0,Broadway & W 133 St,40.8190344,-73.956156,21.0,Manhattanville,Manhattan,10027-4840,69.42
1087,3950.0,Brook Ave & E 141 St,40.809619,-73.917875,19.0,,The Bronx,10454,28.45
1088,4157.0,Boston Rd & Prospect Ave,40.833246,-73.896599,19.0,,The Bronx,10456,75.87
1089,3462.0,E 44 St & 2 Ave,40.75118387463277,-73.97138714790344,39.0,Turtle Bay,Manhattan,10017,60.36
1090,4018.0,Broadway & W 131 St,40.817555,-73.957163,21.0,Manhattanville,Manhattan,10027,43.54
1091,4141.0,Southern Blvd & Tiffany St,40.818185,-73.894143,20.0,,The Bronx,10459,28.14
1092,4123.0,Central Park W & W 103 St,40.79603684159984,-73.96158903853575,40.0,Manhattan Community Board 7,Manhattan,10025,85.8
1093,4087.0,W 170 St & University Ave,40.84207,-73.926075,22.0,,The Bronx,10452,150.27
1094,4127.0,Ogden Ave & Merriam Ave,40.839142,-73.925961,19.0,,The Bronx,10452,109.95
1095,4122.0,Central Park W & W 97 St,40.79249519495111,-73.96417066463071,0.0,,Manhattan,10025,96.11
1096,4096.0,Grand Concourse & E 167 St,40.834263,-73.917641,30.0,,The Bronx,10456,111.07
1097,4034.0,Hamilton Pl & W 138 St,40.821728,-73.952761,27.0,Manhattan Community Board 9,Manhattan,10031,117.96
1098,4011.0,Westchester Ave & Jackson Ave,40.816124,-73.908116,25.0,,The Bronx,10455,47.14
1099,4124.0,Central Park W & W 91 St,40.78866499127884,-73.96680057048798,48.0,,Manhattan,10025,118.32
1100,3994.0,2 Ave & E 125 St,40.802554,-73.933509,30.0,East Harlem,Manhattan,10035-3501,11.97
1101,4172.0,Washington Ave & E 167 St,40.829896,-73.907618,19.0,,,10456,47.88
1102,4015.0,W 155 St & Frederick Douglass Blvd,40.82923,-73.936996,31.0,,Manhattan,10039,15.05
1103,4057.0,Amsterdam Ave & W 167 St,40.839443,-73.937044,23.0,Manhattan Community Board 12,Manhattan,10032,157.74
1104,4036.0,Motorgate,40.7639089,-73.9477213,36.0,Roosevelt Island,Manhattan,10044,15.69
1105,3980.0,Amsterdam Ave & W 152 St,40.829523,-73.944279,20.0,Manhattan Community Board 9,Manhattan,10040,131.39
1106,4082.0,Gerard Ave & McClellan St,40.833909,-73.92112,30.0,,The Bronx,10452,55.54
1107,4192.0,Prospect Ave & E 167 St,40.826303,-73.898751,19.0,,The Bronx,10459,58.06
1108,3973.0,St Nicholas Ave & W 150 St,40.827212,-73.942722,26.0,Manhattan Community Board 9,Manhattan,10031,101.36
1109,3988.0,E 128 St & 3 Ave,40.805631,-73.934077,19.0,East Harlem,Manhattan,10035,9.31
1110,4035.0,Broadway & W 153 St,40.831327,-73.946665,20.0,Hamilton Heights,Manhattan,10031,141.64
1111,3923.0,Lincoln Ave & E 134 St,40.808484,-73.928803,17.0,Mott Haven,The Bronx,10454,10.18
1112,4147.0,E 163 St & Tiffany St,40.821075,-73.895069,19.0,,The Bronx,10459,38.55
1113,4012.0,W 148 St & Amsterdam Ave,40.827075,-73.945909,23.0,Manhattan Community Board 9,Manhattan,10031,126.28
1114,4016.0,Adam Clayton Powell Blvd & W 130 St,40.812346,-73.946168,22.0,,Manhattan,10030,27.47
1115,3945.0,Amsterdam Ave & W 136 St,40.819746,-73.951819,21.0,Hamilton Heights,Manhattan,10031,153.58
1116,4121.0,1 Ave & E 39 St,40.74714,-73.97113,53.0,Murray Hill,Manhattan,10017-6927,26.6
1117,4180.0,West Farms Rd & Boone Ave,40.830025,-73.886312,20.0,,The Bronx,10459,31.72
1118,4139.0,Tinton Ave & E 165 St,40.824796,-73.90242,19.0,,The Bronx,10456,68.51
1119,4040.0,Madison Ave & E 26 St,40.742684734875695,-73.98671329021454,51.0,Flatiron District,Manhattan,10010,37.93
1120,4153.0,E 165 St & Fox St,40.82394,-73.894025,27.0,,The Bronx,10459,60.46
1121,4161.0,3 Ave & E 174 St,40.84224,-73.8985,,,The Bronx,10457,53.1
1122,4081.0,Gerard Ave & E 165 St,40.83173,-73.922394,21.0,,The Bronx,10452,35.69
1123,4108.0,Clay Ave & E 173 St,40.843264,-73.904867,19.0,,The Bronx,10457,48.28
1124,3956.0,St. Ann's Ave & E 144 St,40.811112,-73.914932,23.0,Mott Haven,The Bronx,10454,27.78
1125,4106.0,Ogden Ave & W 164 St,40.832812,-73.929372,19.0,,The Bronx,10452,111.36
1126,4199.0,River Ave & McClellan St,40.83406,-73.92243,21.0,,The Bronx,10452,40.33
1127,4059.0,W 171 St & St. Nicholas Ave,40.842941,-73.938631,31.0,Manhattan Community Board 12,Manhattan,10032,193.59
1128,4162.0,Southern Blvd & E 172 St,40.834124,-73.88955,19.0,,The Bronx,10460,63.12
1129,4023.0,Adam Clayton Powell Blvd & W 141 St,40.819241,-73.941057,24.0,,Manhattan,10030,28.78
1130,4132.0,Southern Blvd & Avenue St. John,40.812769,-73.901583,19.0,,The Bronx,10455,38.81
1131,3928.0,Adam Clayton Powell Blvd & W 132 St,40.813539,-73.94521,18.0,,Manhattan,10027,28.53
1132,3947.0,E 138 St & Willow Ave,40.804168,-73.911545,18.0,Port Morris,The Bronx,10454,28.74
1133,3951.0,E 141 St & St Ann's Ave,40.808633,-73.916124,19.0,Port Morris,The Bronx,10454,31.68
1134,4079.0,Grant Ave & E 164 St,40.828847,-73.91769,,,The Bronx,10456,49.25
1135,4136.0,Washington Ave & E 163 St,40.824,-73.91089,23.0,,The Bronx,10455-1201,31
1136,4007.0,Riverside Dr & W 138 St,40.823168,-73.955857,30.0,Hamilton Heights,Manhattan,10031,54.44
1137,4025.0,Edgecombe Ave & W 150 St,40.826881,-73.941427,20.0,Manhattan Community Board 9,Manhattan,10031,74.01
1138,3953.0,W 147 St & Adam Clayton Powell Blvd,40.82281,-73.937413,25.0,,Manhattan,10039,15.84
1139,4099.0,E 169 St & Webster Ave,40.834015,-73.908863,21.0,,The Bronx,10456,30.22
1140,4041.0,Adam Clayton Powell Blvd & W 151 St,40.825289,-73.936232,18.0,,Manhattan,10039,19.05
1141,4134.0,Longwood Ave & Southern Blvd,40.816343,-73.896447,24.0,,The Bronx,10459,27.38
1142,4056.0,Broadway & W 165 St,40.839137,-73.941409,24.0,Manhattan Community Board 12,Manhattan,10032,169.32
1143,3932.0,Grand Concourse & E 144 St,40.816576,-73.927987,23.0,Mott Haven,The Bronx,10451,38.03
1144,4037.0,Roosevelt Island Tramway,40.757284,-73.9536,39.0,Roosevelt Island,Manhattan,10044,21.55
1145,3926.0,5 Ave & W 131 St,40.81014,-73.93973,20.0,East Harlem,Manhattan,10037,19.57
1146,4131.0,Goble Pl & Macombs Rd,40.844075,-73.917256,19.0,,The Bronx,10452,52.3
1147,4060.0,Amsterdam Ave & W 172 St,40.842173,-73.935111,23.0,Manhattan Community Board 12,Manhattan,10032,191.07
1148,4055.0,W 165 St & Fort Washington Ave,40.84004,-73.942939,27.0,Manhattan Community Board 12,Manhattan,10032,145.34
1149,3925.0,E 138 St & Canal St W,40.812304,-73.929153,21.0,Mott Haven,The Bronx,10451,16.37
1150,4128.0,College Ave & E 170 St,40.837576,-73.910489,24.0,,The Bronx,10456,75.72
1151,4030.0,Courtlandt Ave & E 157 St,40.822267,-73.916792,23.0,,The Bronx,10451,32.15
1152,4070.0,W 180 St & Ft Washington Ave,40.849972,-73.938423,24.0,Manhattan Community Board 12,Manhattan,10033,197.13
1153,4190.0,Walton Ave & E 171 St,40.840683,-73.915073,19.0,,The Bronx,10452,85.55
1154,3919.0,Wall St & South St,40.70437,-74.00637,,Financial District,Manhattan,10005,5.84
1155,4029.0,Courtlandt Ave & E 149 St,40.816402,-73.919549,23.0,,The Bronx,10451,49.46
1156,4165.0,E 165 St & Clay Ave,40.82809,-73.91288,19.0,,The Bronx,10456,28.78
1157,4193.0,W 181 St & Riverside Dr,40.85168,-73.94186,21.0,Hudson Heights,Manhattan,10033,115.95
1158,4047.0,Amsterdam Ave & W 156 St,40.832081,-73.942386,27.0,Manhattan Community Board 12,Manhattan,10032,149.31
1159,3959.0,Edgecombe Ave & W 145 St,40.823498,-73.94386,31.0,,Manhattan,10030,60.41
1160,4174.0,3 Ave & E 170 St,40.834857,-73.903743,21.0,,The Bronx,10456,46.59
1161,4014.0,Riverside Dr & W 148 St,40.829114,-73.950426,22.0,Manhattan Community Board 9,Manhattan,10031,82.3
1162,4086.0,Inwood Ave & W 170 St,40.840536,-73.919228,21.0,,The Bronx,10452,40.66
1163,3960.0,Hamilton Pl & W 140 St,40.822756,-73.951346,21.0,Manhattan Community Board 9,Manhattan,10031,140.52
1164,3936.0,W 133 St & 12 Ave,40.820003,-73.959089,19.0,Manhattanville,Manhattan,10027,19.84
1165,4154.0,Faile St & Garrison Ave,40.820578,-73.888271,19.0,,The Bronx,10474,49.32
1166,4112.0,Wards Meadow Comfort Station,40.78294,-73.93077,18.0,Manhattan Community Board 11,Manhattan,10035,11.59
1167,4069.0,Cabrini Blvd & W 177 St,40.848282,-73.941343,24.0,Manhattan Community Board 12,Manhattan,10033,183.95
1168,3948.0,E 138 St & Cypress Ave,40.805559,-73.914718,23.0,Port Morris,The Bronx,10454,55.78
1169,3949.0,Brook Ave & E 138 St,40.807408,-73.91924,23.0,Mott Haven,The Bronx,10454,27.98
1170,4009.0,Riverside Dr & W 145 St,40.827305,-73.951989,35.0,Manhattan Community Board 9,Manhattan,10031,80.61
1171,4027.0,St. Nicholas Ave & W 155 St,40.830663,-73.941323,23.0,Manhattan Community Board 9,Manhattan,10032,129.4
1172,4115.0,Bronx Shore Comfort Station,40.80046,-73.92404,25.0,Manhattan Community Board 11,Manhattan,10454-4606,11.61
1173,3998.0,W 135 St & Lenox Terrace Pl,40.813619,-73.939336,29.0,,Manhattan,10037,17.12
1174,3952.0,E 141 St & Jackson Ave,40.806896,-73.911837,19.0,Port Morris,The Bronx,10454,43.91
1175,4149.0,E 167 St & Franklin Ave,40.82895,-73.90521,20.0,,The Bronx,10456,72.89
1176,3922.0,Alexander Ave & E 134 St,40.807466,-73.927107,19.0,Mott Haven,The Bronx,10454,17.31
1177,4021.0,E 138 St & Grand Concourse,40.813224,-73.930605,21.0,Mott Haven,The Bronx,10454,18.77
1178,4020.0,Bradhurst Ave & W 148 St,40.825125,-73.941616,22.0,,Manhattan,10039,28.03
1179,4084.0,Sheridan Ave & E 168 St,40.835334,-73.9154,22.0,,The Bronx,10456,110.13
1180,4159.0,3 Ave & E 172 St,40.839586,-73.900277,19.0,,The Bronx,10457,52.41
1181,3958.0,Willis Ave & E 143 St,40.812299,-73.92037,23.0,,The Bronx,10454,27.47
1182,4076.0,E 150 St & Gerard Ave,40.820089,-73.928947,29.0,,The Bronx,10451,21.78
1183,3969.0,St Ann's Ave & Westchester Ave,40.815887,-73.911918,19.0,,The Bronx,10455,28.13
1184,4220.0,Frederick Douglass Blvd & W 145 St,40.823061,-73.941928,27.0,,Manhattan,10039,27.38
1185,4167.0,Grand Concourse & East Mount Eden Ave,40.84301,-73.91172,19.0,,The Bronx,10453,95.21
1186,4198.0,E 161 St & Park Ave,40.824811,-73.916407,21.0,,,10451,25.98
1187,4019.0,St. Ann's Av & Bruckner Blvd,40.803399,-73.919763,17.0,Mott Haven,The Bronx,10454,18.28
1188,4051.0,W 160 St & St. Nicholas Ave,40.834468,-73.939865,26.0,Manhattan Community Board 12,Manhattan,10032,166.57
1189,4078.0,Concourse Village East & E 158 St,40.823732,-73.919379,31.0,,The Bronx,10451,42.8
1190,3989.0,Willis Ave & E 137 St,40.808384,-73.923604,22.0,Mott Haven,The Bronx,10454,39.92
1191,4163.0,Boone Ave & E 172 St,40.832649,-73.885272,19.0,,The Bronx,10460,31.72
1192,4071.0,Broadway & W 160 St,40.835775,-73.9434,22.0,Manhattan Community Board 12,Manhattan,10032,127.89
1193,3966.0,Wales Ave & E 147 St,40.811314,-73.907729,19.0,Port Morris,The Bronx,10455,31.54
1194,3944.0,Convent Ave & W 135 St,40.818215,-73.950988,30.0,Manhattan Community Board 9,Manhattan,10031,117.65
1195,4148.0,Intervale Ave & Westchester Ave,40.821967,-73.896752,27.0,,The Bronx,10459,35.52
1196,4114.0,Sunken Meadow Comfort Station,40.79558,-73.91906,25.0,Manhattan Community Board 11,Manhattan,10035,18.63
1197,4038.0,Southpoint Park,40.75370225419114,-73.95865201950072,36.0,Roosevelt Island,Manhattan,11109,10.9
1198,4103.0,Ogden Ave & W 165 St,40.834457,-73.928381,19.0,,The Bronx,10452,106.59
1199,4143.0,Hunts Point Ave & Bryant Ave,40.813991,-73.8855,21.0,,The Bronx,10474,38.35
1200,4053.0,W 163 St & Edgecombe Ave,40.835798,-73.937496,19.0,Manhattan Community Board 12,Manhattan,10032,155.25
1201,4006.0,E 147 St & Bergen Ave,40.814673,-73.91839,25.0,Mott Haven,The Bronx,10455,27.47
1202,4074.0,Edgecombe Ave & W 167 St,40.838191,-73.936085,23.0,Manhattan Community Board 12,Manhattan,10032,148.45
1203,3931.0,Morris Ave & E 142 St,40.814469,-73.924963,23.0,Mott Haven,The Bronx,10451,20.17
1204,3983.0,Westchester Ave & E 156 St,40.817802,-73.905203,23.0,,The Bronx,10455-1201,48.09
1205,4080.0,Jerome Ave & E 164 St,40.831444,-73.926226,21.0,,The Bronx,10452,22.07
1206,3987.0,E 149 St & Jackson Ave,40.813135,-73.909235,23.0,,The Bronx,10455,37.63
1207,4050.0,W 159 St & Edgecombe Ave,40.833303,-73.939326,21.0,Manhattan Community Board 12,Manhattan,10032,134.43
1208,4158.0,Freeman St & Reverend James A Polite Ave,40.830529,-73.894717,19.0,,The Bronx,10459,52.45
1209,4098.0,Shakespeare Ave & W 169 St,40.839312,-73.922423,20.0,,The Bronx,10452,90.03
1210,4130.0,Morris Ave & McClellan St,40.831584,-73.9149,22.0,,The Bronx,10456,55.76
1211,3479.0,Picnic Point,40.68512559515415,-74.02535319328308,45.0,Nolan Park,Manhattan,10004,8.22
1212,3977.0,Prospect Ave & Longwood Ave,40.81899,-73.90202,29.0,,The Bronx,10455,66.27
1213,4140.0,E 163 St & Union Ave,40.822545,-73.901824,24.0,,The Bronx,10459,73.99
1214,4113.0,Icahn Stadium,40.79346,-73.92389,22.0,Manhattan Community Board 11,Manhattan,10454-4606,14.04
1215,4194.0,Plaza Dr & W 170 St,40.840484,-73.917946,30.0,,The Bronx,10452,52.76
1216,3972.0,E 158 St & Melrose Ave,40.822215,-73.914688,23.0,,The Bronx,10451,31.28
1217,4150.0,E 170 St & Webster Ave_old,40.836103,-73.907199,,,,10456,30.42
1218,4175.0,E 171 St & Webster Ave,40.838379,-73.905838,20.0,,The Bronx,10457,30.42
1219,3930.0,E 142 St & 3 Ave,40.812735,-73.923697,19.0,Mott Haven,The Bronx,10454,29.49
1220,4205.0,Crotona Park North & Prospect Ave,40.841092,-73.892317,19.0,,The Bronx,10457,95.19
1221,3937.0,E 135 St & St Ann's Ave,40.805089,-73.918889,23.0,Mott Haven,The Bronx,10454,18.43
1222,4170.0,Webster Ave & E 166 St,40.828975,-73.911259,19.0,,The Bronx,10456,29.07
1223,4024.0,Macombs Pl & W 152 St,40.826406,-73.937948,33.0,,Manhattan,10039,19.22
1224,4063.0,Wadsworth Ave & W 175 St,40.846052,-73.937648,24.0,Manhattan Community Board 12,Manhattan,10033,199.07
1225,3965.0,E 149 St & Eagle Ave,40.814046,-73.91186,19.0,,The Bronx,10455,30.32
1226,3975.0,Brook Ave & E 157 St,40.820713,-73.911759,21.0,,The Bronx,10451,27.47
1227,3939.0,Willow Ave & E 133 St,40.800933,-73.913863,21.0,Port Morris,The Bronx,10454,16.35
1228,3976.0,E 156 & Brook Ave,40.819823,-73.912411,19.0,,The Bronx,10455,27.47
1229,4166.0,River Ave & E 153 St,40.82441,-73.92818,27.0,,The Bronx,10451,24.27
1230,4189.0,Grant Ave & E 169 St,40.83579,-73.913741,19.0,,The Bronx,10456,76.53
1231,4201.0,Clay Ave & Claremont Pkwy,40.83999,-73.90549,21.0,,The Bronx,10457,35.62
1232,4126.0,E 157 St & River Ave,40.825737,-73.927311,19.0,,The Bronx,10451,26.07
1233,4212.0,Franklin Ave & E 169 St,40.83171,-73.90208,19.0,,The Bronx,10456,95.71
1234,4133.0,Beck St & Leggett Ave,40.815077,-73.899939,20.0,,The Bronx,10459,50.26
1235,4207.0,Sherman Ave & E 166 St,40.83130549267296,-73.91744792461395,19.0,,The Bronx,10456,64.33
1236,4182.0,Louis Nine Blvd & Intervale Ave,40.831998,-73.892686,19.0,,The Bronx,10459,47.45
1237,4109.0,Amsterdam Ave & W 183 St,40.84925,-73.93022,21.0,Fort George,Manhattan,10033,176.24
1238,4005.0,St. Nicholas Terrace & Convent Ave,40.821294,-73.947868,24.0,Manhattan Community Board 9,Manhattan,10031,111.81
1239,4146.0,Garrison Ave & Manida St,40.818743,-73.890247,30.0,,The Bronx,10474,65.31
1240,3933.0,Gerard Ave & E 146 St,40.817755,-73.92965,19.0,Mott Haven,The Bronx,10451,24.98
1241,4228.0,Waterloo Pl & Crotona Park East,40.839194,-73.888587,19.0,,The Bronx,10460,107.19
1242,4177.0,Prospect Ave & Jennings St,40.831762,-73.896853,20.0,,The Bronx,10460,74.5
1243,4088.0,Nelson Ave & W 172 St,40.843965,-73.920999,20.0,,The Bronx,10452,119.91
1244,4092.0,Jerome Ave & Anderson Ave,40.830179,-73.928747,19.0,,The Bronx,10452,18.47
1245,3955.0,St Mary's St & Jackson Ave,40.808891,-73.91081,19.0,,The Bronx,10454,38.54
1246,3996.0,Lexington Ave & E 128 St,40.806414,-73.936085,24.0,East Harlem,Manhattan,10035,15.01
1247,4067.0,Amsterdam Ave & W 180 St,40.847396,-73.931205,23.0,,Manhattan,10040,159.97
1248,4013.0,Convent Ave & W 151 St,40.82831,-73.942924,24.0,Manhattan Community Board 9,Manhattan,10031,110.76
1249,4204.0,E 167 St & Bryant Ave,40.826706,-73.888719,20.0,,The Bronx,10459,61.23
1250,4105.0,Concourse Village West & E 156 St,40.823162,-73.923267,21.0,,The Bronx,10451,53.1
1251,4073.0,W 51 St & Rockefeller Plaza,40.75969995906254,-73.97808194160461,35.0,Manhattan Community Board 5,Manhattan,10111,68.25
1252,4031.0,Cauldwell Ave & E 158 St,40.81989,-73.908351,19.0,,The Bronx,10456,68.63
1253,3921.0,Willis Ave & Bruckner Blvd,40.805701,-73.925177,19.0,Mott Haven,The Bronx,10454-4606,23.97
1254,4179.0,Freeman St & Southern Blvd,40.830051,-73.892103,23.0,,The Bronx,10459,45.69
1255,4171.0,Boston Rd & E 167 St,40.828199,-73.903719,21.0,,The Bronx,10456,97.81
1256,4091.0,Jerome Ave & Ogden Ave,40.829797,-73.931015,21.0,,The Bronx,10452,24.61
1257,3957.0,E 144 St & Brook Ave,40.811675,-73.917037,19.0,Mott Haven,The Bronx,10454,27.47
1258,4185.0,Southern Blvd & E 175 St,40.839335,-73.886445,19.0,,The Bronx,10460,56.92
1259,4054.0,W 163 St & Riverside Dr,40.839278,-73.945446,19.0,Manhattan Community Board 12,Manhattan,10032,129.65
1260,4160.0,Washington Ave & E 174 St,40.843079,-73.900216,19.0,,,10457,41.94
1261,4085.0,Grand Concourse & E 171 St,40.839549,-73.913004,25.0,,The Bronx,10456,109.27
1262,3941.0,Walnut Ave & E 136 St,40.801657,-73.909513,17.0,Port Morris,The Bronx,10454,14.98
1263,4101.0,E 153 St & E 157 St,40.826677,-73.929327,19.0,,The Bronx,10451,18.94
1264,4191.0,Intervale Ave & Kelly St,40.827301,-73.896372,20.0,,The Bronx,10459,38.34
1265,3964.0,Brook Ave & E 148 St,40.814383,-73.915368,20.0,Mott Haven,The Bronx,10455,27.47
1266,4209.0,University Ave & W 168 St,40.838706,-73.927034,18.0,,The Bronx,10452,77.29
1267,4169.0,Morris Ave & E 171 St,40.83899,-73.9109,21.0,,The Bronx,10457,76.87
1268,4104.0,Old Broadway & W 133 St,40.818212,-73.955277,20.0,Manhattanville,Manhattan,10027,75.88
1269,4064.0,Southern Blvd & E 142 St,40.807347437082,-73.90809774398804,23.0,Port Morris,The Bronx,10454,18.93
1270,3961.0,Morris Ave & E 153 St,40.820036,-73.921411,19.0,,The Bronx,10451,27.76
1271,4144.0,Lafayette Ave & Hunts Point Ave,40.816567,-73.888161,22.0,,The Bronx,10474,84.06
1272,4227.0,Crotona Park East & E 173 St,40.837037,-73.890413,19.0,,The Bronx,10460,84.46
1273,4142.0,Barry St & Tiffany St,40.816126,-73.891559,19.0,,The Bronx,10474,63.8
1274,4202.0,Dawson St & Intervale Ave,40.819999,-73.897263,19.0,,The Bronx,10459,35.23
1275,4129.0,Anderson Ave & W 164 St,40.832057,-73.927421,19.0,,The Bronx,10452,99.96
1276,4211.0,Union Ave & E 169 St,40.82995,-73.898802,19.0,,The Bronx,10459,68.94
1277,4095.0,E 165 St & Jerome Ave,40.83263,-73.925101,21.0,,The Bronx,10456,16.22
1278,4155.0,E 169 St & Fox St,40.827184,-73.893721,19.0,,The Bronx,10459,46.21
1279,4138.0,3 Ave & Franklin Ave,40.82696,-73.907451,19.0,,The Bronx,10456,44.21
1280,3938.0,E 133 St & Cypress Pl,40.80262,-73.9174,19.0,Port Morris,The Bronx,10454,26.91
1281,4107.0,E 170 St & Clay Ave,40.837213,-73.908345,24.0,,The Bronx,10456,85.41
1282,4181.0,Hoe Ave & Jennings St,40.832171,-73.889686,20.0,,The Bronx,10460,69.31
1283,4229.0,Sheridan Ave & E 172 St,40.840494,-73.911479,24.0,,The Bronx,10457,92.07
1284,4213.0,Wilkins Ave & Crotona Park E,40.835302,-73.895133,19.0,,The Bronx,10460,72.14
1285,4168.0,Mount Eden Pkwy & Eastburn Ave,40.842675,-73.908544,19.0,,The Bronx,10457,78.72
1286,4249.0,E 170 St & Webster Ave,40.83617913677475,-73.90730146322765,25.0,,,10456,30.42
1287,4230.0,Charlotte St & Boston Rd,40.8358771,-73.8931428,19.0,,The Bronx,10460,81.77
1288,3940.0,E 134 St & Walnut Ave,40.800425,-73.911034,16.0,Port Morris,The Bronx,10454,14.74
1289,3986.0,E 149 St & Morris Ave,40.81734,-73.922962,35.0,,The Bronx,10455,25.31
1290,4247.0,Riverside Dr & W 153 St,40.832164,-73.949702,21.0,Hamilton Heights,Manhattan,10031,72.28
1291,4208.0,Walton Ave & E 153 St,40.822351,-73.926907,19.0,,The Bronx,10451,48.36
1292,4245.0,Bruckner Blvd & Bryant Ave,40.821952,-73.888546,24.0,,The Bronx,10459,51.61
1293,4200.0,E 174 St & Walton Ave,40.844811,-73.912042,27.0,,The Bronx,10452,56.77
1294,4183.0,Fulton Ave & E 172 St,40.839229,-73.899047,19.0,,The Bronx,10457,77.2
1295,4206.0,Southern Blvd & E 149 St,40.811892,-73.904192,27.0,,The Bronx,10458,35.34
1296,3459.0,E 53 St & 3 Ave,40.75763227739443,-73.96930575370789,,Manhattan Community Board 6,Manhattan,10022,36.43
1297,4232.0,6 Ave & W 45 St,40.756951,-73.982631,45.0,Theater District,Manhattan,10019,59.11
1298,4118.0,Liberty St & Nassau St,40.70858894240581,-74.00935482235809,45.0,Financial District,Manhattan,10045,31.27
1299,4219.0,W 35 St & 9 Ave,40.75414519263519,-73.9960889518261,32.0,Garment District,Manhattan,10001,39.57
1300,4235.0,W 50 St & 10 Ave,40.76473420006519,-73.99194359779358,55.0,Theater District,Manhattan,10019,39.07
1301,4236.0,W 54 St & 11 Ave,40.768333,-73.992573,59.0,Manhattan Community Board 4,Manhattan,10019,26.21
1302,4238.0,W 44 St & 11 Ave,40.762009,-73.996975,79.0,Manhattan Community Board 4,Manhattan,10018,16.03
1303,4203.0,Westchester Ave & Southern Blvd,40.824956,-73.891677,21.0,,The Bronx,10472,59.08
1304,4250.0,Seneca Ave & Irvine St,40.81872569990116,-73.88862490653992,19.0,,The Bronx,10474,71.93
1305,4239.0,E 50 St & Park Ave,40.757334,-73.974235,25.0,Manhattan Community Board 5,Manhattan,10037,57.95
1306,4248.0,Old Slip & South St,40.70336686695866,-74.007867872715,63.0,Financial District,Manhattan,10005,5.88
1307,4215.0,Hudson St & W 13 St,40.74005708567285,-74.0052741765976,28.0,West Village,Manhattan,10014,16.46
1308,4214.0,Spring St & Hudson St,40.72583996792375,-74.0076532959938,43.0,Hudson Square,Manhattan,10013,13.96
1309,3705.0,Thompson St & Bleecker St,40.72840059450829,-73.99968780577183,41.0,University Village,Manhattan,10012,25.58
1310,4304.0,34th Ave & Vernon Blvd,40.76535380385866,-73.93986314535141,30.0,Ravenswood,Queens,11101,18.9
1311,4280.0,W 10 St & Washington St,40.73342399437081,-74.00851495563984,46.0,West Village,Manhattan,10014,17.18
1312,4302.0,21 St & 23 Ave,40.778557,-73.919046,22.0,,Queens,11106,45.17
1313,4309.0,18 St & 27 Ave,40.772768286288304,-73.92743647098541,23.0,Astoria,Queens,11102,29.44
1314,4305.0,34 Ave & 31 St,40.759604471387945,-73.92714411020279,19.0,Sunnyside Gardens,Queens,11101,49.37
1315,4311.0,8 St & Astoria Blvd,40.7725996921817,-73.93266275525093,19.0,Astoria,Queens,11102,17.93
1316,4279.0,E 54 St & 1 Ave,40.756265,-73.964179,41.0,Manhattan Community Board 6,Manhattan,10022,33.19
1317,4184.0,Southern Blvd & E 174 St,40.836733,-73.887931,27.0,,The Bronx,10460,68.26
1318,4306.0,35 St & 23 Ave,40.77301508291382,-73.91119033098221,28.0,Steinway,Queens,11101,66.41
1319,4328.0,W 167 St & St. Nicholas Ave,40.840124,-73.93949,,Manhattan Community Board 12,Manhattan,10031,171.37
1320,4310.0,24 St & 38 Ave,40.756351,-73.936515,19.0,Ravenswood,Queens,11101,22.14
1321,4332.0,Morris Ave & E 163 St,40.827230499624726,-73.91765579597632,21.0,,The Bronx,10456,45.69
1322,3993.0,W 59 St & West End Ave,40.771771,-73.990625,,Manhattan Community Board 7,Manhattan,10019,18.95
1323,3954.0,Southern Blvd & E 142 St,40.807258,-73.907999,23.0,Port Morris,The Bronx,10454,18.99
1324,4151.0,3 Ave & E 169 St,40.832678,-73.905158,21.0,,The Bronx,10456,47.45
1325,4282.0,Washington St & Barrow St,40.73191132323174,-74.008769094944,39.0,West Village,Manhattan,10014,13.47
1326,4252.0,Home St & Westchester Ave,40.827629,-73.886659,21.0,,The Bronx,10459,40.52
1327,4303.0,Steinway St & Broadway,40.75905795418586,-73.91897544264793,32.0,Steinway,Queens,11103,55.81
1328,4329.0,35 St & 30 Ave,40.76547569244953,-73.91811579465866,29.0,,Queens,11103,52.77
1329,4240.0,E 44 St & Lexington Ave,40.752643,-73.974996,33.0,Turtle Bay,Manhattan,10017,44.98
1330,4312.0,Shore Blvd & Astoria Park,40.77977,-73.923162,33.0,Astoria,Queens,11102,10.87
1331,4244.0,W 36 St & 7 Ave,40.752149,-73.989539,38.0,Garment District,Manhattan,10018,44.31
1332,4251.0,Nelson Ave & 167 St,40.83670566862804,-73.92608866095543,21.0,,The Bronx,10452,88
1333,4308.0,E 170 St & Sheridan Ave,40.838315,-73.912604,30.0,,The Bronx,10456,89.62
1334,4111.0,E 27 St & Park Ave S,40.74275179648995,-73.9847157150507,47.0,Rose Hill,Manhattan,10001-7604,36.04
1335,4284.0,43 St & 35 Ave,40.754139,-73.919543,25.0,Sunnyside Gardens,Queens,11101,41.63
1336,4262.0,38 St & Northern Blvd,40.752372,-73.925384,23.0,Sunnyside Gardens,Queens,11101,25.77
1337,4263.0,30 Ave & 41 St,40.763422,-73.914142,23.0,,Queens,11103,72.32
1338,4254.0,34 St & 38 Ave,40.752443,-73.929737,25.0,,Queens,11106,25.51
1339,4255.0,42 Pl & Northern Blvd,40.753091,-73.920603,25.0,Sunnyside Gardens,Queens,11101,32.33
1340,4330.0,31 Rd & 21 St,40.766824,-73.930486,19.0,Astoria,Queens,11106,16.02
1341,4258.0,34 Ave & 45 St,40.754795,-73.917014,23.0,Sunnyside Gardens,Queens,11101,47.1
1342,4314.0,30 Ave & 47 St,40.761294,-73.909562,21.0,,Queens,11103,61.1
1343,4315.0,46 St & 30 Rd,40.76072,-73.910989,21.0,Sunnyside Gardens,Queens,11103,62.41
1344,4285.0,46 St & 25 Ave,40.765753,-73.90676,24.0,,Queens,11103,76.8
1345,4257.0,43 St & 37 Ave,40.750181,-73.919998,21.0,Sunnyside Gardens,Queens,11101,47.37
1346,4316.0,34 Ave & 48 St,40.75388,-73.914952,25.0,Sunnyside Gardens,Queens,11101,44.51
1347,4265.0,49 St & 31 Ave,40.758057,-73.909831,19.0,,Queens,11377,50.17
1348,4313.0,46 St & 28 Ave,40.763328,-73.908782,19.0,Sunnyside Gardens,Queens,11101,70.37
1349,4264.0,48 St & Broadway,40.755763,-73.912715,31.0,,Queens,11103,47.73
1350,4268.0,50 St & Northern Blvd,40.753441,-73.912402,27.0,Sunnyside Gardens,Queens,11377,47.8
1351,4317.0,51 St & Hobart St,40.757764,-73.907654,23.0,,Queens,11377,50.99
1352,4256.0,25 Ave & 41 St,40.767666,-73.910963,23.0,,Queens,11103,70.86
1353,4266.0,50 St & 30 Ave,40.760083,-73.907107,23.0,,Queens,11377,60.5
1354,4260.0,43 St & 23 Ave,40.769673,-73.906018,23.0,Steinway,Queens,11105,59.54
1355,4269.0,Broadway & 51 St,40.754164,-73.908906,27.0,,Queens,11373,38.27
1356,4270.0,62 St & Northern Blvd,40.754176,-73.900318,27.0,Woodside,Queens,11377,31.28
1357,4319.0,31 Ave & 57 St,40.757357,-73.904726,23.0,,Queens,11369,58.2
1358,4318.0,Broadway & 49 St,40.755389,-73.911517,25.0,,Queens,11373,47.61
1359,4387.0,58 St & 2 Ave - Brooklyn Army Terminal Vaccination Site,40.644512,-74.021506,35.0,Sunset Park,,11220,32.99
1360,4267.0,Bulova Ave & Brooklyn Queens Expressway W,40.762507,-73.902534,19.0,,Queens,11377,44.29
1361,4287.0,Steinway St & Ditmars Blvd,40.772717,-73.906127,21.0,Steinway,Queens,11101,54.84
1362,4261.0,36 St & Ditmars Blvd,40.774306,-73.908335,25.0,Steinway,Queens,11105,57.69
1363,4320.0,31 St & Ditmars Blvd,40.776168,-73.910485,24.0,Steinway,Queens,11101,57.2
1364,4271.0,31 Ave & 61 St,40.757525,-73.901614,21.0,,Queens,11369,36.67
1365,4273.0,Ditmars Blvd & 48 St,40.769219,-73.901001,19.0,Steinway,Queens,11370,45.69
1366,4386.0,57 St & 1 Ave - Brooklyn Army Terminal Vaccination Site,40.646377,-74.023087,27.0,Sunset Park,,11220,21.65
1367,4289.0,31 St & 21 Ave,40.77813,-73.90842,27.0,Steinway,Queens,11101,49.61
1368,4331.0,48 St & 37 Ave,40.751555,-73.915026,29.0,Sunnyside Gardens,Queens,11101,38.73
1369,4272.0,Ditmars Ave & 43 St,40.771203,-73.903865,,Steinway,Queens,11370,48.94
1370,4288.0,Steinway St & 21 Ave,40.774798,-73.903787,21.0,Steinway,Queens,11101,36.97
1371,4275.0,21 Ave & Shore Blvd,40.783956,-73.916894,21.0,Steinway,Queens,11105,13.26
1372,4327.0,21 St & 21 Ave,40.782465,-73.914527,21.0,,Queens,11106,35.9
1373,4321.0,21 Ave & Crescent St,40.780478,-73.912212,24.0,Steinway,Queens,11370,55.58
1374,3446.0,NYCBS Depot - STY - Valet Scan,0.0,0.0,,,,,-1000000
1375,3447.0,E 71 St & 1 Ave,40.76703432309872,-73.95622730255127,,Lenox Hill,Manhattan,10021,47.02
1376,3445.0,Riverside Dr & W 89 St,40.79181171501097,-73.9786022901535,,Manhattan Community Board 7,Manhattan,10024,71
1377,3450.0,Penn Station Valet - Valet Scan,40.7512836,-73.9969245,,Chelsea District,Manhattan,10119,36.42
1378,3455.0,Schermerhorn St & 3 Ave,40.68680820503432,-73.98036181926727,,,Brooklyn,11217,39.7
1379,3632.0,E 12 St & Avenue B,40.728048571362606,-73.97881150245667,,East Village,Manhattan,10009,11.33
1380,3466.0,W 45 St & 6 Ave,40.75668720603179,-73.98257732391357,,Manhattan Community Board 5,Manhattan,10036,60.05
1381,3476.0,Norman Ave & Leonard St,40.72576996727214,-73.9507395029068,,,Brooklyn,11222,20.49
1382,3458.0,W 55 St & 6 Ave,40.76309387270797,-73.9783501625061,53.0,Manhattan Community Board 5,Manhattan,10105,60.39
1383,3560.0,28 St & 38 Ave,40.754876,-73.934326,,Court Square,Queens,11101,45.58
1384,3644.0,Van Dyke St & Van Brunt St,40.67581622522832,-74.01488184928894,,,Brooklyn,11231,6.36
1385,3548.0,Pacific St & Bedford Ave,40.6777747,-73.9529322,,,Brooklyn,11216,81.12
1386,3625.0,28 St & 40 Ave,40.7525758,-73.9364281,,Court Square,Queens,11101,36.93
1387,3594.0,Montgomery St & Franklin Ave OLD,40.6661649,-73.9593484,,,Brooklyn,11213,96.73
1388,3643.0,E 41 St & 5 Ave,40.75272201381188,-73.98123621940613,,Midtown South,Manhattan,10110,72.42
1389,3489.0,Gold St & Frankfort St,40.71069994631387,-74.00354146957397,,Financial District,Manhattan,10038,11.27
1390,3449.0,Eckford St & Engert Ave,40.72146256229816,-73.94800901412964,,,Brooklyn,11222,16.29
1391,3512.0,27 Ave & 4 St,40.7747175,-73.9337894,,Astoria,Queens,11102,18.89
1392,3474.0,6 Ave & Spring St,40.7252556952547,-74.00412082672119,,Hudson Square,Manhattan,10013,22.6
1393,3636.0,Expansion Warehouse 333 Johnson Ave,40.707731483954696,-73.93452286720276,,,Brooklyn,11206,17.47
1394,3642.0,E 98 St & Lexington Ave,40.78728519860952,-73.95012259483337,,East Harlem,Manhattan,10029,57.96
1395,3468.0,NYCBS Depot - STY - Garage 4,40.7303801,-73.9747502,,Manhattan Community Board 6,Manhattan,10009,3.08
1396,3550.0,Convent Ave & W 129 St,40.81413,-73.953005,,Manhattanville,Manhattan,10027,57.34
1397,3650.0,8D Mobile 01,45.50585063876723,-73.56910943984985,,Quartier des Spectacles,Ville-Marie,H3A 1N9,-1000000
1398,3485.0,NYCBS Depot - RIS,40.725208,-73.974724,,East Village,Manhattan,10009,7.44
1399,3653.0,31 St & 35 Ave,40.75820464696758,-73.92832159996033,,,Queens,11101,48.42
1400,3631.0,Crown St & Bedford Ave,40.666563,-73.956741,,,Brooklyn,11225,104.13
1401,3464.0,W 37 St & Broadway,40.75227093837409,-73.98770570755005,56.0,Garment District,Manhattan,10018,50.6
1402,3470.0,Gowanus Tech Station,40.66980193089616,-73.99490475654602,,Park Slope,,11215,16.96
1403,3248.0,LPI Facility,0.0,0.0,,,,,-1000000
1404,3488.0,8D QC Station 01,45.506364054011385,-73.5694634914398,,Quartier des Spectacles,Ville-Marie,H3A 1N9,-1000000
1405,3633.0,333 Johnson TEST 1,0.0,0.0,,,,,-1000000
1406,3215.0,JSQ Don't Use,0.0,0.0,,,,,-1000000
1407,3480.0,WS Don't Use,0.0,0.0,,,,,-1000000
1408,3197.0,Hs Don't Use,40.71925170740989,-74.03423398733139,,Downtown Jersey City,,07311,9.23
1409,3019.0,NYCBS Depot - DEL,40.716633,-73.981933,,Lower East Side,Manhattan,10002-1013,17.98
1410,3020.0,NYCBS Test,40.6466068,-74.01597,,Sunset Park,,11220,48.89
1411,3000.0,MLSWKiosk,40.755467,-73.986536,,Theater District,Manhattan,10019,55.93
1412,3659.0,W 17 St & 9 Ave,40.74294891660091,-74.00413691997528,,Chelsea,Manhattan,10011,15.26
1413,3660.0,W 16 St & 8 Ave,40.74102150900266,-74.001384973526,,Chelsea District,Manhattan,10011,21.58
1414,3663.0,Sterling Pl & 7 Ave,40.67716489469059,-73.973827958107,,Park Slope,,11217,88.32
1415,3487.0,Prototype Lab Motivate Headquarters,40.65659567482039,-74.00849282741547,,Greenwood Heights,,11232,9.62
1416,3684.0,W 12 St & W 4 St,40.73756121181137,-74.00398269295692,,West Village,Manhattan,10014,21.63
1417,3666.0,32 St & 30 Ave,40.7664255270288,-73.92062902450562,,,Queens,11101,45.96
1418,3688.0,2 Ave & E 55 St,40.757920208794026,-73.96638214588165,29.0,Manhattan Community Board 6,Manhattan,10022,41.96
1419,3701.0,Cliff St & Fulton St,40.70831794366396,-74.00504082441329,65.0,Financial District,Manhattan,10038,16.77
1420,3675.0,3 Ave & E 95 St,40.78459679884892,-73.94968539476395,,Carnegie Hill,Manhattan,10128,44.89
1421,3669.0,Henry St & W 9 St,40.67630357634183,-74.00314047932625,19.0,,Brooklyn,11231,10.77
1422,3719.0,S Portland Ave & Atlantic Ave,40.68322254161595,-73.9738118648529,,Fort Greene,,11217,50.89
1423,3672.0,Apache,40.66976709185003,-73.99474382400513,,Park Slope,,11215,17.22
1424,3683.0,Smart Cities Conference,40.71015471094912,-73.98453533649443,,Lower East Side,Manhattan,10002,3.96
1425,3685.0,Prospect Park - 5 Year Anniversary Celebration,40.66065236872916,-73.9645904302597,,,Brooklyn,11225,85.71
1426,3695.0,E 5 St & 2 Ave,40.72686951528207,-73.98919031023979,,East Village,Manhattan,10003,36.09
1427,3700.0,E 87 St & 3 Ave,40.77940608529787,-73.95333588123322,,Carnegie Hill,Manhattan,10028,79.35
1428,3805.0,E 80 St & Park Ave,40.776173,-73.959757,,Manhattan Community Board 8,Manhattan,10075,79.28
1429,3747.0,E 84 St & 3 Ave,40.77755374298887,-73.95512759685516,,,Manhattan,10028,78.35
